business_name,telephone,business_page,category,website,street,locality,region,zipcode,latitude,longitude
Yeshiva Kinyan Torah,(845) 356-5090,https://www.yellowpages.com/monsey-ny/mip/yeshiva-kinyan-torah-504974248,,,65 College Rd,Monsey,NY,10952,41.118048,-74.05940368364077
Yeshiva Ketana Of Bensonhurst,(718) 336-1101,https://www.yellowpages.com/brooklyn-ny/mip/yeshiva-ketana-of-bensonhurst-14413567,"Colleges & Universities,Educational Consultants,Schools",,120 Avenue M,Brooklyn,NY,11230,40.61626135,-73.97379988550345
Flatbush Yeshiva School,(718) 377-1100,https://www.yellowpages.com/brooklyn-ny/mip/flatbush-yeshiva-school-459632333,"Public Schools,Schools",http://www.flatbush.org,1609 Avenue J,Brooklyn,NY,11230,40.62569795,-73.95989947935877
Yeshiva Derech Chaim,(718) 438-5476,https://www.yellowpages.com/brooklyn-ny/mip/yeshiva-derech-chaim-7675303,"Colleges & Universities,Schools",https://www.joyauction.org,1573 39th St,Brooklyn,NY,11218,40.637091204081635,-73.9802586122449
Yeshiva Derech Emes,(845) 425-3233,https://www.yellowpages.com/spring-valley-ny/mip/yeshiva-derech-emes-462463208,"Schools,Educational Services",,11 Neil Rd,Spring Valley,NY,10977,41.1130231,-74.0437839
Congregation Brith Hadoshah,(716) 873-8986,https://www.yellowpages.com/buffalo-ny/mip/congregation-brith-hadoshah-475167933,Religious Organizations,http://www.shalombuffalo.org,50 Alberta Dr,Buffalo,NY,14226,42.8867166,-78.8783922
Yeshiva Avir Yakov,(845) 354-6540,https://www.yellowpages.com/spring-valley-ny/mip/yeshiva-avir-yakov-536228590,"Public Schools,Schools",,26 Dr Frank Rd,Spring Valley,NY,10977,41.127403,-74.058228
American Friends Yeshiva TFRT,(718) 874-9406,https://www.yellowpages.com/airmont-ny/mip/american-friends-yeshiva-tfrt-498167362,,http://www.yeshivatiferet.com,28 Park Ave,Airmont,NY,10952,41.10039263295091,-74.07668767728316
Yeshivas Beis Dovid Shlomo,(203) 776-9237,https://www.yellowpages.com/new-haven-ct/mip/yeshivas-beis-dovid-shlomo-465327810,"Public Schools,Schools,Religious General Interest Schools",https://www.ybdsnewhaven.org,292 Norton St,New Haven,CT,6511,41.3203749,-72.9451029
Yeshiva Eitz Chayim of Hillside Inc,(646) 457-0655,https://www.yellowpages.com/hillside-nj/mip/yeshiva-eitz-chayim-of-hillside-inc-526263238,Schools,,1531 Maple Ave,Hillside,NJ,7205,40.702518090909095,-74.22054209090909
Yeshiva Kehilath Yakov Inc,(718) 486-3055,https://www.yellowpages.com/brooklyn-ny/mip/yeshiva-kehilath-yakov-inc-455572897,"Private Schools (K-12),Schools,Preschools & Kindergarten",,206 Wilson St,Brooklyn,NY,11211,40.70689745,-73.95968367480057
Yeshiva Tifereth Moshe,(718) 846-7300,https://www.yellowpages.com/kew-gardens-ny/mip/yeshiva-tifereth-moshe-2469400,"Public Schools,Schools,Educational Services",http://stylemydomain.com,8306 Abingdon Rd,Kew Gardens,NY,11415,40.7095633,-73.8307965
Yeshiva Chernobil,(718) 302-9395,https://www.yellowpages.com/brooklyn-ny/mip/yeshiva-chernobil-6283775,Schools,,274 Wallabout St,Brooklyn,NY,11206,40.7001061,-73.95194962292264
Yeshiva Viznitz Dkhal Torath Chaim,(845) 371-0300,https://www.yellowpages.com/monsey-ny/mip/yeshiva-viznitz-dkhal-torath-chaim-480179308,"Public Schools,Schools,Elementary Schools",,230 Maple Ave,Monsey,NY,10952,41.1162351655729,-74.06497991708788
Yeshiva Institute of Greater,(718) 762-7070,https://www.yellowpages.com/flushing-ny/mip/yeshiva-institute-of-greater-459597070,"Schools,Educational Services",,4300 171st St,Flushing,NY,11358,40.7654301,-73.8174291
Yeshiva Beth Israel - CLOSED,,https://www.yellowpages.com/brooklyn-ny/mip/yeshiva-beth-israel-462823214,,,90 Ross St,Brooklyn,NY,11249,40.7039211,-73.96276497972806
Yeshiva of Congregation Tzemach Tzabik Viznitz,(718) 782-6383,https://www.yellowpages.com/brooklyn-ny/mip/yeshiva-of-congregation-tzemach-tzabik-viznitz-7737137,"Public Schools,Schools",,186 Ross St,Brooklyn,NY,11211,40.706027199999994,-73.95952545889423
Yeshiva Beth Hillel Of Williamsburg,(718) 596-2111,https://www.yellowpages.com/brooklyn-ny/mip/yeshiva-beth-hillel-of-williamsburg-15031923,,,35 Hewes St,Brooklyn,NY,11249,40.7008684,-73.9621416
Yeshiva Machzikel Havas,(718) 436-4445,https://www.yellowpages.com/brooklyn-ny/mip/yeshiva-machzikel-havas-1140812,,,1601 42nd St,Brooklyn,NY,11204,40.63501015,-73.98114204999999
Yeshiva Of Central Queens,(718) 793-1295,https://www.yellowpages.com/flushing-ny/mip/yeshiva-of-central-queens-512511,"Religious Organizations,Private Schools (K-12),Religious General Interest Schools",http://www.ycqweb.com,14737 70th Rd,Flushing,NY,11367,40.7654301,-73.8174291
Yeshiva Of New Haven,(203) 777-2200,https://www.yellowpages.com/new-haven-ct/mip/yeshiva-of-new-haven-464867491,"Public Schools,Schools,Elementary Schools",,765 Elm St,New Haven,CT,6511,41.316895349999996,-72.94684506202267
Yeshiva Ketana Shaarei Torah,(718) 236-4100,https://www.yellowpages.com/brooklyn-ny/mip/yeshiva-ketana-shaarei-torah-472227229,"Public Schools,Schools",http://ykb.com,2025 67th St,Brooklyn,NY,11204,40.615049400000004,-73.98608915
Yeshiva Of Staten Island,(718) 356-4323,https://www.yellowpages.com/staten-island-ny/mip/yeshiva-of-staten-island-1944784,"Public Schools,Schools,Private Schools (K-12)",http://ymht.org,1870 Drumgoole Rd E,Staten Island,NY,10309,40.5275431,-74.2143894
Yeshiva Tiseres Elimelech,(718) 375-1152,https://www.yellowpages.com/brooklyn-ny/mip/yeshiva-tiseres-elimelech-482732082,Clergy,,1656 E 9th St,Brooklyn,NY,11223,40.6082807,-73.96428730847859
Yeshiva Ketana Of Long Island,(516) 612-4815,https://www.yellowpages.com/inwood-ny/mip/yeshiva-ketana-of-long-island-4299449,"Educational Consultants,Educational Services",http://www.ykli.org,321 Doughty Blvd,Inwood,NY,11096,40.620194,-73.746649
Yeshiva Torah Temimah,(718) 377-3743,https://www.yellowpages.com/brooklyn-ny/mip/yeshiva-torah-temimah-517158528,"Educational Consultants,Educational Services",,2818 Avenue K,Brooklyn,NY,11210,40.62398715,-73.94759324816218
Yeshiva Slabodka Benei Beraq,(718) 633-2513,https://www.yellowpages.com/brooklyn-ny/mip/yeshiva-slabodka-benei-beraq-1711402,"Private Schools (K-12),Religious General Interest Schools,Schools",,1339 46th St,Brooklyn,NY,11219,40.636197249999995,-73.98919700768576
Yeshiva Beth Moshe,(718) 972-6111,https://www.yellowpages.com/brooklyn-ny/mip/yeshiva-beth-moshe-472006896,"Colleges & Universities,Schools",,5402 14th Ave,Brooklyn,NY,11219,40.6309796,-73.99319133555858
Yeshiva Toras Yisroel Rabbincal Seminary,(718) 633-5306,https://www.yellowpages.com/brooklyn-ny/mip/yeshiva-toras-yisroel-rabbincal-seminary-4740661,"Public Schools,Schools",,5311 New Utrecht Ave,Brooklyn,NY,11219,40.632783200000006,-73.99499134999999
Bobov Yeshiva Of Monsey,(845) 578-1755,https://www.yellowpages.com/monsey-ny/mip/bobov-yeshiva-of-monsey-474669543,"Public Schools,Schools",,230 Viola Rd,Monsey,NY,10952,41.1341738,-74.0603506
Yeshiva Avir Yakov,(845) 354-7555,https://www.yellowpages.com/spring-valley-ny/mip/yeshiva-avir-yakov-506524437,Schools,,766 Chestnut Ridge Rd,Spring Valley,NY,10977,41.08581599512248,-74.05410601680185
Yeshiva Of Machzlkal Hadas Inc,(718) 853-0003,https://www.yellowpages.com/brooklyn-ny/mip/yeshiva-of-machzlkal-hadas-inc-519735894,"Messianic Places of Worship,Churches & Places of Worship",,4621 13th Ave,Brooklyn,NY,11219,40.636151100000006,-73.99061647059517
Yeshiva Machzikeil Ha,(347) 240-0221,https://www.yellowpages.com/brooklyn-ny/mip/yeshiva-machzikeil-ha-504012415,"Public Schools,Schools",,4814 16th Ave,Brooklyn,NY,11204,40.63139255,-73.98546201983726
Yeshiva of Rockland,(845) 352-1573,https://www.yellowpages.com/spring-valley-ny/mip/yeshiva-of-rockland-740026,"Public Schools,Schools,Religious General Interest Schools",,250 N Main St,Spring Valley,NY,10977,41.1130231,-74.0437839
Congregation Shir Shalom,(716) 633-8877,https://www.yellowpages.com/buffalo-ny/mip/congregation-shir-shalom-501669983,Religious Organizations,http://shirshalombuffalo.org,4660 Sheridan Dr,Buffalo,NY,14221,42.9781624,-78.6995297
Yeshiva Boyan,(718) 435-6060,https://www.yellowpages.com/brooklyn-ny/mip/yeshiva-boyan-883246,"Public Schools,Schools",,4315 12th Ave,Brooklyn,NY,11219,40.63916205,-73.99083475057003
Cong Yeshiva Avir Yakov,(845) 354-0874,https://www.yellowpages.com/new-square-ny/mip/cong-yeshiva-avir-yakov-497861810,"Public Schools,Preschools & Kindergarten",http://mail.ercsd.k12.ny.us/gw/webacc,766 N Main St Ste 101,New Square,NY,10977,41.1409461,-74.0295992
Yeshiva Bobover,(718) 435-7514,https://www.yellowpages.com/brooklyn-ny/mip/yeshiva-bobover-9019167,"Public Schools,Schools",,4206 15th Ave,Brooklyn,NY,11219,40.6362356,-73.98408233835445
Yeshiva Of Belle Harbor,(718) 474-0045,https://www.yellowpages.com/rockaway-park-ny/mip/yeshiva-of-belle-harbor-10469897,"Public Schools,Preschools & Kindergarten,Schools",http://www.yeshivaofbelleharbor.org,13401 Rockaway Beach Blvd Ste 1,Rockaway Park,NY,11694,40.5805104,-73.8361535
Yeshiva Darche,(718) 333-3448,https://www.yellowpages.com/brooklyn-ny/mip/yeshiva-darche-546757979,Schools,,1625 Coney Island Ave,Brooklyn,NY,11230,40.617872250000005,-73.96350980230594
Yeshiva Of Flatbush,(718) 859-3018,https://www.yellowpages.com/brooklyn-ny/mip/yeshiva-of-flatbush-540990546,Schools,,916 Avenue I,Brooklyn,NY,11230,40.6267568,-73.96694645314095
Yeshiva Shaarei Yosher Office,(845) 434-5583,https://www.yellowpages.com/fallsburg-ny/mip/yeshiva-shaarei-yosher-office-466533440,"Public Schools,Schools",,5556 State Route 42,Fallsburg,NY,12733,41.7320362,-74.6012711
Yeshiva Darchei Torah,(845) 434-2087,https://www.yellowpages.com/woodbourne-ny/mip/yeshiva-darchei-torah-514390762,"Private Schools (K-12),Schools",,228 Todd Rd,Woodbourne,NY,12788,41.759814,-74.5940484
Yeshiva Shaare Torah,(718) 437-6101,https://www.yellowpages.com/brooklyn-ny/mip/yeshiva-shaare-torah-3149189,Schools,,222 Ocean Pkwy,Brooklyn,NY,11218,40.64352047368421,-73.97452994736841
Chabad House Of Buffalo,(716) 688-1642,https://www.yellowpages.com/getzville-ny/mip/chabad-house-of-buffalo-12044712,"Religious Organizations,Synagogues,Churches & Places of Worship",https://www.chabadofbuffalo.com,2450 North Forest Road,Getzville,NY,14068,43.01013951325442,-78.77795968882532
Congregation Zichron Dovid/ Yeshiva Harei Bisamim,(718) 926-5751,https://www.yellowpages.com/brooklyn-ny/mip/congregation-zichron-dovid-yeshiva-harei-bisamim-548694892,School Information,,1135 54th Street,Brooklyn,NY,11219,40.63448025,-73.99836465
Yeshiva of Telshe Alumni,(718) 549-0540,https://www.yellowpages.com/bronx-ny/mip/yeshiva-of-telshe-alumni-474668117,Schools,,640 W 249th St,Bronx,NY,10471,40.8966711,-73.91109640030399
Yeshiva Kehilath Yakov,(718) 387-7905,https://www.yellowpages.com/brooklyn-ny/mip/yeshiva-kehilath-yakov-462885958,"Public Schools,Schools,Private Schools (K-12)",,68 Harrison Ave,Brooklyn,NY,11211,40.7047770625,-73.9521598125
Yeshiva Shaare Torah Girls High School,(718) 382-4000,https://www.yellowpages.com/brooklyn-ny/mip/yeshiva-shaare-torah-girls-high-school-458887966,"Public Schools,Schools,Elementary Schools",,1768 Ocean Ave,Brooklyn,NY,11230,40.6189667,-73.9554677590415
Yeshiva Ltzierim,(718) 232-6480,https://www.yellowpages.com/brooklyn-ny/mip/yeshiva-ltzierim-482492560,"Public Schools,Schools",,2143 65th St,Brooklyn,NY,11204,40.6147809,-73.98230664183438
Yeshiva B'nei Torah,(516) 983-7878,https://www.yellowpages.com/far-rockaway-ny/mip/yeshiva-bnei-torah-13571739,Religious General Interest Schools,http://www.ybt.org,737 Elvira Ave,Far Rockaway,NY,11691,40.60250685,-73.7408573108084
Yeshiva Sharrai Hatzlacha,(718) 232-1333,https://www.yellowpages.com/brooklyn-ny/mip/yeshiva-sharrai-hatzlacha-456720643,,,1535 63rd St Ste LL,Brooklyn,NY,11219,40.6501038,-73.9495823
Yeshiva & Kolel Bais Medrosh Elyon,(845) 356-7064,https://www.yellowpages.com/monsey-ny/mip/yeshiva-kolel-bais-medrosh-elyon-22553748,,,73 Main St,Monsey,NY,10952,41.118048,-74.05940368364077
Yeshiva Kehilath Yakov,(914) 512-9301,https://www.yellowpages.com/ossining-ny/mip/yeshiva-kehilath-yakov-1805250,"Private Schools (K-12),Schools,Child Care",http://nces.ed.gov,340 Illington Rd,Ossining,NY,10562,41.1613168,-73.8620367
Yeshiva Kehilath Yakov Inc,(718) 972-0839,https://www.yellowpages.com/brooklyn-ny/mip/yeshiva-kehilath-yakov-inc-3501609,"Private Schools (K-12),Schools,Educational Services",,4706 10th Ave,Brooklyn,NY,11219,40.6400859,-73.99789084259592
Yeshiva Mkor Chaim,(718) 972-1215,https://www.yellowpages.com/brooklyn-ny/mip/yeshiva-mkor-chaim-1569102,Schools,,1600 55th St,Brooklyn,NY,11204,40.6275025,-73.9889214
Yeshiva Gedolah Zichron Leyma,(908) 587-0502,https://www.yellowpages.com/linden-nj/mip/yeshiva-gedolah-zichron-leyma-1279875,"Colleges & Universities,Religious General Interest Schools",,1000 Orchard Ter,Linden,NJ,7036,40.636994,-74.266296
Yeshiva Kehilath Yakov Student Phone,(718) 851-6659,https://www.yellowpages.com/brooklyn-ny/mip/yeshiva-kehilath-yakov-student-phone-814795,"Public Schools,Schools,Day Care Centers & Nurseries",,1402 40th St,Brooklyn,NY,11218,40.638406950000004,-73.98457559186431
Yeshiva Shaar Ephrayim,(845) 578-4001,https://www.yellowpages.com/monsey-ny/mip/yeshiva-shaar-ephrayim-6276006,"Public Schools,Schools",,176 Maple Ave,Monsey,NY,10952,41.11664459767553,-74.06071565492019
Cong Yeshiva Avir Kakov,(845) 573-9235,https://www.yellowpages.com/new-city-ny/mip/cong-yeshiva-avir-kakov-465597109,"Public Schools,Schools",,32 Addison Boyce Dr,New City,NY,10956,41.13907104893753,-74.0201723467818
Yeshiva Ahavas Torah,(718) 339-9656,https://www.yellowpages.com/brooklyn-ny/mip/yeshiva-ahavas-torah-6592285,Religious General Interest Schools,http://www.yahavastorah.com,2961 Nostrand Ave,Brooklyn,NY,11229,40.6121779,-73.94370342571861
Yeshiva University High School for Girls,(718) 479-8550,https://www.yellowpages.com/hollis-ny/mip/yeshiva-university-high-school-for-girls-468471452,"High Schools,Religious General Interest Schools",http://www.yuhsg.org,8686 Palo Alto St,Hollis,NY,11423,40.7199108,-73.7733037
Malka Kesser Girls Yeshiva,(718) 854-7777,https://www.yellowpages.com/brooklyn-ny/mip/malka-kesser-girls-yeshiva-471935567,Religious General Interest Schools,,1019 46th St,Brooklyn,NY,11219,40.64049455,-73.99626406878711
Bobov Monsey Yeshiva - CLOSED,,https://www.yellowpages.com/spring-valley-ny/mip/bobov-monsey-yeshiva-481586752,"Public Schools,Schools,Elementary Schools",,7 S Rigaud Rd,Spring Valley,NY,10977,41.1130231,-74.0437839
Yeshivas Menachem Mendel,(845) 721-2947,https://www.yellowpages.com/monsey-ny/mip/yeshivas-menachem-mendel-505771637,Religious General Interest Schools,http://www.monseychabad.com,262 Blauvelt Rd,Monsey,NY,10952,41.12153828571429,-74.06908657142857
Yeshiva University Museum,(212) 960-5390,https://www.yellowpages.com/new-york-ny/mip/yeshiva-university-museum-471849855,"Colleges & Universities,Religious General Interest Schools",http://www.yu.edu,500 W 185th St,New York,NY,10033,40.8506562,-73.9298679
Yeshivas Ahavas Isreal,(845) 292-4876,https://www.yellowpages.com/liberty-ny/mip/yeshivas-ahavas-isreal-537405843,,,73 Old Loomis Rd,Liberty,NY,12754,41.79915607094636,-74.7708824947474
Yeshiva Ohr Shraga Veretzsky,(718) 252-7777,https://www.yellowpages.com/brooklyn-ny/mip/yeshiva-ohr-shraga-veretzsky-2864448,"Public Schools,Schools",http://www.ohrshraga.org,1102 Avenue L,Brooklyn,NY,11230,40.62008346296297,-73.96411892592593
Central Yeshiva Tomchei Tmimim Lubavitz,(718) 774-3430,https://www.yellowpages.com/brooklyn-ny/mip/central-yeshiva-tomchei-tmimim-lubavitz-507386398,Colleges & Universities,http://www.centralyeshiva.com,841 Ocean Pkwy,Brooklyn,NY,11230,40.628005,-73.970821
Cong Yeshiva Bais Moshe,(718) 972-1962,https://www.yellowpages.com/brooklyn-ny/mip/cong-yeshiva-bais-moshe-547760594,,,1650 41st St,Brooklyn,NY,11218,40.639505,-73.987455
Yeshiva Darchei Aliya,(718) 975-0489,https://www.yellowpages.com/brooklyn-ny/mip/yeshiva-darchei-aliya-530142611,Physicians & Surgeons,,1245 E 18th St,Brooklyn,NY,11230,40.620151199999995,-73.95724328729324
Yeshiva Gedolah Zichron Moshe,(845) 434-5240,https://www.yellowpages.com/fallsburg-ny/mip/yeshiva-gedolah-zichron-moshe-534582102,"Elementary Schools,Schools",,84 Laurel Park Rd,Fallsburg,NY,12733,41.72926615565064,-74.62105501188019
Yeshiva Rabbi Solomon Kluger,(718) 236-1175,https://www.yellowpages.com/brooklyn-ny/mip/yeshiva-rabbi-solomon-kluger-534477834,Public Schools,,1865 51st St,Brooklyn,NY,11204,40.6263929,-73.98010767012161
Yeshiva Darkei Emunah,(845) 371-6019,https://www.yellowpages.com/spring-valley-ny/mip/yeshiva-darkei-emunah-456805864,,,49 S Main St,Spring Valley,NY,10977,41.1130231,-74.0437839
Syracuse Hebrew Day School,(315) 446-1900,https://www.yellowpages.com/syracuse-ny/mip/syracuse-hebrew-day-school-7210355,"Public Schools,Educational Services,Churches & Places of Worship",http://www.shds.org,5655 Thompson Rd,Syracuse,NY,13214,43.0553801,-76.0830659
Yeshiva Ketana Of Long Island,(516) 791-2800,https://www.yellowpages.com/valley-stream-ny/mip/yeshiva-ketana-of-long-island-10906155,,http://ykli.org,410 Hungry Harbor Rd,Valley Stream,NY,11581,40.64599111368606,-73.71840452599133
Yeshiva Stolin,(845) 362-4105,https://www.yellowpages.com/suffern-ny/mip/yeshiva-stolin-5640582,Schools,,259 Grandview Ave,Suffern,NY,10901,41.1115932,-74.1216851
Yeshiva Ateret Torah,(718) 375-2556,https://www.yellowpages.com/brooklyn-ny/mip/yeshiva-ateret-torah-16692042,"Public Schools,Schools,Educational Services",,1627 E 95th St,Brooklyn,NY,11236,40.6335142,-73.89181678530784
Yeshiva Chaim Ushulom,(718) 871-0645,https://www.yellowpages.com/brooklyn-ny/mip/yeshiva-chaim-ushulom-459300615,"Public Schools,Schools",,4607 14th Ave,Brooklyn,NY,11219,40.6350379,-73.98813837991096
Albert Einstein College of Medicine of Yeshiva Uni,(718) 405-8440,https://www.yellowpages.com/bronx-ny/mip/albert-einstein-college-of-medicine-of-yeshiva-uni-455595286,,,1625 Poplar St,Bronx,NY,10461,40.8464148,-73.84582361317337
Yeshiva Of Staten Island,(845) 626-2179,https://www.yellowpages.com/kerhonkson-ny/mip/yeshiva-of-staten-island-14105099,Campgrounds & Recreational Vehicle Parks,,YESHIVA Of Staten Isl,Kerhonkson,NY,12446,41.7736845,-74.30082923131955
Yeshiva Kehilath Yakov,(718) 923-9234,https://www.yellowpages.com/brooklyn-ny/mip/yeshiva-kehilath-yakov-454826206,"Private Schools (K-12),Child Care,Schools",,638 Bedford Ave,Brooklyn,NY,11249,40.7020391,-73.95916571704635
Yeshiva Of Rochester,(585) 473-2810,https://www.yellowpages.com/rochester-ny/mip/yeshiva-of-rochester-675520,Colleges & Universities,http://www.tiuny.org,759 Park Ave,Rochester,NY,14607,43.147378,-77.575491
Yeshiva Mkor Boruch,(845) 794-8595,https://www.yellowpages.com/monticello-ny/mip/yeshiva-mkor-boruch-3862233,"Private Schools (K-12),Religious General Interest Schools,Schools",,736 State Route 17B,Monticello,NY,12701,41.6556465,-74.6893282
Yeshiva Darchei Torah Inc,(718) 868-0113,https://www.yellowpages.com/far-rockaway-ny/mip/yeshiva-darchei-torah-inc-470706080,"Religious Organizations,Synagogues,Churches & Places of Worship",http://www.darchei.org,257 Beach 17th St,Far Rockaway,NY,11691,40.5965798,-73.7516351454023
Yeshiva Nesivos Chaim,(718) 972-1221,https://www.yellowpages.com/brooklyn-ny/mip/yeshiva-nesivos-chaim-468276848,Schools,http://www.rabbihorowitz.com/PYes/SchoolDetails.cfm?School_ID=763,686 E 2nd St,Brooklyn,NY,11218,40.63426403846154,-73.97672876923077
Ahi Ezer Yeshiva School,(718) 648-6100,https://www.yellowpages.com/brooklyn-ny/mip/ahi-ezer-yeshiva-school-2091495,Religious General Interest Schools,http://www.ahiezeryeshiva.org,2433 Ocean Pkwy,Brooklyn,NY,11235,40.5902415,-73.96466673761057
Yeshiva Torah Umidos,(718) 339-7672,https://www.yellowpages.com/brooklyn-ny/mip/yeshiva-torah-umidos-18957740,"Public Schools,Schools",,1358 E 13th St,Brooklyn,NY,11230,40.616389749999996,-73.96186284999999
Yeshiva Ahavas Israel,(718) 855-2367,https://www.yellowpages.com/brooklyn-ny/mip/yeshiva-ahavas-israel-506459837,,,12 Franklin St,Brooklyn,NY,11222,40.7253891,-73.9572625
Yeshiva Gedolah,(917) 946-1788,https://www.yellowpages.com/bronx-ny/mip/yeshiva-gedolah-542640889,,,1216 Avenue Saint John,Bronx,NY,10455,40.8144951,-73.9022216
Yeshiva Gedoleh Ohr Yisroel,(718) 963-4200,https://www.yellowpages.com/brooklyn-ny/mip/yeshiva-gedoleh-ohr-yisroel-462895180,Public Schools,http://yeshivaty.com,8800 Seaview Ave,Brooklyn,NY,11236,40.6297343,-73.8964094
Yeshiva Toras Emes,(718) 377-0909,https://www.yellowpages.com/brooklyn-ny/mip/yeshiva-toras-emes-9009858,Schools,,2332 Olean St,Brooklyn,NY,11210,40.614607649999996,-73.95074197847222
Yeshiva Rambam,(718) 252-7871,https://www.yellowpages.com/brooklyn-ny/mip/yeshiva-rambam-2611301,Schools,,3190 Bedford Ave,Brooklyn,NY,11210,40.62472108695652,-73.9514362173913
Yeshiva Ohr Eliezer,(347) 462-2004,https://www.yellowpages.com/brooklyn-ny/mip/yeshiva-ohr-eliezer-482733883,Public Schools,,1655 E 10th St,Brooklyn,NY,11223,40.608502200000004,-73.9628669
Congregation Ner Tamid - CLOSED,,https://www.yellowpages.com/liverpool-ny/mip/congregation-ner-tamid-1212781,"Religious Organizations,Synagogues",,5061 W Taft Rd,Liverpool,NY,13088,43.106456,-76.217705
Magen David Yeshiva,(718) 266-2082,https://www.yellowpages.com/brooklyn-ny/mip/magen-david-yeshiva-7536147,,,49 Avenue T,Brooklyn,NY,11223,40.598473,-73.98315289817249
Darchei Yeshiva Aliya MD,(718) 975-0489,https://www.yellowpages.com/brooklyn-ny/mip/darchei-yeshiva-aliya-md-542475948,Public Schools,,1997 E 7th St,Brooklyn,NY,11223,40.6018149,-73.96454740210243
Yeshiva,(718) 474-0045,https://www.yellowpages.com/brooklyn-ny/mip/yeshiva-507185733,Public Schools,http://www.yeshivaofbelleharbor.org,1649 E 13th St,Brooklyn,NY,11229,40.609147163265305,-73.96013718367347
Yeshiva Ateres Yisroel - CLOSED,(718) 763-6777,https://www.yellowpages.com/brooklyn-ny/mip/yeshiva-ateres-yisroel-8787697,"Schools,Religious General Interest Schools",,8101 Avenue K,Brooklyn,NY,11236,40.63303445,-73.9088721
Yeshiva Yeshurin-Robshitz,(718) 375-9292,https://www.yellowpages.com/brooklyn-ny/mip/yeshiva-yeshurin-robshitz-462711641,Religious General Interest Schools,,1454 Ocean Pkwy,Brooklyn,NY,11230,40.613211500000006,-73.96900438903654
Yeshiva Shaar Hatorah,(718) 846-1940,https://www.yellowpages.com/richmond-hill-ny/mip/yeshiva-shaar-hatorah-4405515,"Public Schools,Schools,Religious General Interest Schools",http://shaarhatorah.edu,11706 84th Ave,Richmond Hill,NY,11418,40.70342,-73.836619
Yeshiva Of Brooklyn Elementary,(718) 376-3775,https://www.yellowpages.com/brooklyn-ny/mip/yeshiva-of-brooklyn-elementary-456006287,"Public Schools,Schools,Elementary Schools",,1470 Ocean Pkwy,Brooklyn,NY,11230,40.61283923469388,-73.96793134693878
Yeshiva Sharei Hatzluche,(718) 853-5425,https://www.yellowpages.com/brooklyn-ny/mip/yeshiva-sharei-hatzluche-6153335,Private Schools (K-12),,5508 16th Ave,Brooklyn,NY,11204,40.62756965,-73.98941097145953
Yeshiva Lomza Petach Tikva Israel,(718) 853-6811,https://www.yellowpages.com/brooklyn-ny/mip/yeshiva-lomza-petach-tikva-israel-15337486,"Public Schools,Schools",,90 Parkville Ave,Brooklyn,NY,11230,40.62913185,-73.97461895
Yeshiva Atlanta,(516) 433-4811,https://www.yellowpages.com/plainview-ny/mip/yeshiva-atlanta-524620423,,https://www.atljewishacademy.org,132 Southern Pkwy,Plainview,NY,11803,40.781225,-73.489672
Yeshiva Keser Torah,(347) 831-2642,https://www.yellowpages.com/brooklyn-ny/mip/yeshiva-keser-torah-548385393,School Information,,4304 14th Ave,Brooklyn,NY,11219,40.6370378,-73.98673300000002
Yeshiva Chanoch Lenaar,(718) 774-8456,https://www.yellowpages.com/brooklyn-ny/mip/yeshiva-chanoch-lenaar-4572225,"Public Schools,Schools",http://yeshiva.org,804 Montgomery St,Brooklyn,NY,11213,40.66446675,-73.93819013712478
Yeshiva Farms Settlement Schools,(914) 666-8402,https://www.yellowpages.com/mt-kisco-ny/mip/yeshiva-farms-settlement-schools-11616906,"Public Schools,Educational Services,Schools",,Pines Bridge Rd,Mt Kisco,NY,10549,41.221104,-73.733124
Yeshiva Achei Tmimim Lubavitz,(203) 268-7700,https://www.yellowpages.com/trumbull-ct/mip/yeshiva-achei-tmimim-lubavitz-469157314,Clergy,https://www.yeshivaschool.com,77 Mount Pleasant Dr,Trumbull,CT,6611,41.23555426429529,-73.23771402263918
Yeshiva Ohr Torah,(845) 352-2411,https://www.yellowpages.com/monsey-ny/mip/yeshiva-ohr-torah-475800315,"Public Schools,Schools",,201 Route 306,Monsey,NY,10952,41.118048,-74.05940368364077
Mesiuta Yeshiva Rabbi,(718) 676-5466,https://www.yellowpages.com/brooklyn-ny/mip/mesiuta-yeshiva-rabbi-468065667,Religious Organizations,,1559 Coney Island Ave,Brooklyn,NY,11230,40.61936075,-73.96379509594745
Yeshiva Mesivta Wiznitz of USA,(845) 434-8901,https://www.yellowpages.com/fallsburg-ny/mip/yeshiva-mesivta-wiznitz-of-usa-462433199,"Social Service Organizations,Community Organizations,Human Services Organizations",http://yeshiva-mesivta-wiznitz-of-u-s-a-brooklyn-ny.assistance-from-nonprofits.aidpage.com,35 Katz Rd,Fallsburg,NY,12733,41.73142999300925,-74.59512501755103
Yeshiva Toras Emmes Kamenitz,(718) 375-0900,https://www.yellowpages.com/brooklyn-ny/mip/yeshiva-toras-emmes-kamenitz-12122986,"Public Schools,Schools",http://ytek.org,1904 Avenue N,Brooklyn,NY,11230,40.615975999999996,-73.9555741632653
Congregation Yeshiva Me'on Hatorah,(845) 352-1270,https://www.yellowpages.com/spring-valley-ny/mip/congregation-yeshiva-meon-hatorah-17162854,"Special Education,Schools",,365 Viola Rd,Spring Valley,NY,10977,41.1351638,-74.0651138
Yeshiva Ruach Hatorah,(718) 338-5717,https://www.yellowpages.com/brooklyn-ny/mip/yeshiva-ruach-hatorah-16469250,"Public Schools,Schools,Private Schools (K-12)",http://www.ruachhatorah.com,1450 Ocean Ave,Brooklyn,NY,11230,40.62672365,-73.95692869999999
Yeshiva Imrei Chaim Viznitz,(718) 851-1082,https://www.yellowpages.com/brooklyn-ny/mip/yeshiva-imrei-chaim-viznitz-7285967,"Public Schools,Schools",,971 41st St,Brooklyn,NY,11219,40.64405,-73.994807
Buffalo Vaad of Kashrus,(855) 545-5505,https://www.yellowpages.com/buffalo-ny/mip/buffalo-vaad-of-kashrus-503085601,Religious Organizations,,407 Maryvale Dr,Buffalo,NY,14225,42.8867166,-78.8783922
Yeshiva Bais Chaim Yoshua,(718) 435-0894,https://www.yellowpages.com/brooklyn-ny/mip/yeshiva-bais-chaim-yoshua-462446914,"Congregational Churches,Religious General Interest Schools,Churches & Places of Worship",,1270 52nd St,Brooklyn,NY,11219,40.633456249999995,-73.99453202494315
Yeshiva Of Brooklyn Boys Division,(718) 252-9500,https://www.yellowpages.com/brooklyn-ny/mip/yeshiva-of-brooklyn-boys-division-12111269,Schools,,1200 Ocean Pkwy,Brooklyn,NY,11230,40.6195481,-73.97020930762568
Yeshiva Tiferes Yisroel,(718) 258-9006,https://www.yellowpages.com/brooklyn-ny/mip/yeshiva-tiferes-yisroel-5851240,"Public Schools,Schools",https://www.judaicaplace.com/store,1271 E 35th St,Brooklyn,NY,11210,40.62324009803921,-73.9412564509804
Yeshiva Tifereth Israel,(212) 732-3661,https://www.yellowpages.com/new-york-ny/mip/yeshiva-tifereth-israel-10289729,"Religious General Interest Schools,Private Schools (K-12),Schools",,247 E Broadway Apt 2,New York,NY,10002,40.7127281,-74.0060152
Yeshiva of Far Rockaway Derech Ayson Rabbinical Seminary,(718) 327-7600,https://www.yellowpages.com/far-rockaway-ny/mip/yeshiva-of-far-rockaway-derech-ayson-rabbinical-seminary-5902438,"Colleges & Universities,Religious General Interest Schools,Schools",http://www.yofr.org,802 Hicksville Rd,Far Rockaway,NY,11691,40.6003565,-73.7438622
Mesivta of Eastern Parkway-Yeshiva Zichron Meilech,(718) 438-1002,https://www.yellowpages.com/brooklyn-ny/mip/mesivta-of-eastern-parkway-yeshiva-zichron-meilech-451333119,Religious General Interest Schools,,510 Dahill Rd,Brooklyn,NY,11218,40.63513195,-73.97930056722093
Yeshivas Tomchei Tmimim Lubavitch,(718) 735-6601,https://www.yellowpages.com/brooklyn-ny/mip/yeshivas-tomchei-tmimim-lubavitch-497498464,"Colleges & Universities,Religious General Interest Schools,Schools",http://www.centralyeshiva.com,885 Eastern Pkwy,Brooklyn,NY,11213,40.669714400000004,-73.93876155
Mesivta & Yeshiva Gedola of Manhattan Beach,(718) 368-1333,https://www.yellowpages.com/brooklyn-ny/mip/mesivta-yeshiva-gedola-of-manhattan-beach-2657055,Religious General Interest Schools,,59 W End Ave,Brooklyn,NY,11235,40.580239399999996,-73.95311720610047
Yeshiva Tashbar,(718) 486-7425,https://www.yellowpages.com/brooklyn-ny/mip/yeshiva-tashbar-482510245,Public Schools,,857 Kent Ave,Brooklyn,NY,11205,40.69485575,-73.95925042257909
Yeshiva Toras Emes,(914) 829-9124,https://www.yellowpages.com/tarrytown-ny/mip/yeshiva-toras-emes-480189491,Public Schools,,15 S Depot Plz,Tarrytown,NY,10591,41.07714253980687,-73.86446819389478
Yeshiva Hechal Moshe-Beth Jacob School,(212) 877-8709,https://www.yellowpages.com/new-york-ny/mip/yeshiva-hechal-moshe-beth-jacob-school-3027827,"Public Schools,Schools",,303 W 91st St Apt 1,New York,NY,10024,40.7587979,-73.9623427
Yeshiva Gedola Lubavitch,(718) 801-1995,https://www.yellowpages.com/forest-hills-ny/mip/yeshiva-gedola-lubavitch-482253895,Religious Organizations,http://yeshivalubavitch.com,9215 69th Ave,Forest Hills,NY,11375,40.718094,-73.851416
Congregation & Yeshiva Zichron,(845) 425-1005,https://www.yellowpages.com/monsey-ny/mip/congregation-yeshiva-zichron-14608763,Religious Organizations,,10 Maple Ter,Monsey,NY,10952,41.11666437930945,-74.06274042455789
Yeshiva of Spring Valley,(845) 352-2533,https://www.yellowpages.com/suffern-ny/mip/yeshiva-of-spring-valley-473009284,Schools,http://www.yeshivaspringvalley.org,121 College Rd,Suffern,NY,10901,41.1151372,-74.1493948
Yeshiva Ore Mordechai,(718) 234-3476,https://www.yellowpages.com/brooklyn-ny/mip/yeshiva-ore-mordechai-469415515,"Public Schools,Schools",,1535 63rd St,Brooklyn,NY,11219,40.624048,-73.994984
Yeshiva Ateret Torah,(718) 375-7100,https://www.yellowpages.com/brooklyn-ny/mip/yeshiva-ateret-torah-8421314,"Public Schools,Schools",,901 Quentin Rd,Brooklyn,NY,11223,40.6079083,-73.96362768707651
Yeshiva Beth Hillel Of Krasna Inc,(718) 851-4009,https://www.yellowpages.com/brooklyn-ny/mip/yeshiva-beth-hillel-of-krasna-inc-7610570,"Public Schools,Schools",,1623 44th St,Brooklyn,NY,11204,40.63361825,-73.98171607393539
Yeshivas Novominsk,(718) 438-2727,https://www.yellowpages.com/brooklyn-ny/mip/yeshivas-novominsk-498871929,"Colleges & Universities,Schools",http://novominsk.com,1690 60th St,Brooklyn,NY,11204,40.623490734693874,-73.98986175510204
Phila Yeshiva,(718) 633-3490,https://www.yellowpages.com/brooklyn-ny/mip/phila-yeshiva-460245324,Religious General Interest Schools,,240 Ocean Pkwy,Brooklyn,NY,11218,40.64374615,-73.97485442643404
Yeshiva Congregation Tifereth,(718) 434-2951,https://www.yellowpages.com/brooklyn-ny/mip/yeshiva-congregation-tifereth-468454454,Religious Organizations,,1020 Ocean Pkwy,Brooklyn,NY,11230,40.623527249999995,-73.97110963516472
Yeshiva of Machzikai Hadas,(718) 853-2442,https://www.yellowpages.com/brooklyn-ny/mip/yeshiva-of-machzikai-hadas-472531580,Colleges & Universities,,1321 43rd St,Brooklyn,NY,11219,40.63820185,-73.98784700033633
Chabad House-Lubavitch,(315) 424-0363,https://www.yellowpages.com/syracuse-ny/mip/chabad-house-lubavitch-2533467,"Religious Organizations,Synagogues,Churches & Places of Worship",http://www.chabadsyracuse.com,113 Berkeley Dr,Syracuse,NY,13210,43.03368909704947,-76.1277768136608
Yeshiva & Kollel Harbotzas Torah,(718) 692-0208,https://www.yellowpages.com/brooklyn-ny/mip/yeshiva-kollel-harbotzas-torah-29359655,Religious General Interest Schools,,1049 E 15th St,Brooklyn,NY,11230,40.623927,-73.96092589832739
Yeshiva Jesode Hatorah Of Boro Park,(718) 438-0075,https://www.yellowpages.com/brooklyn-ny/mip/yeshiva-jesode-hatorah-of-boro-park-470060502,"Colleges & Universities,Schools",,1358 50th St,Brooklyn,NY,11219,40.633629408163266,-73.99148651020408
Yeshiva Tiferes Shmuel,(845) 354-1165,https://www.yellowpages.com/monsey-ny/mip/yeshiva-tiferes-shmuel-515258618,Schools,,58 Parker Blvd,Monsey,NY,10952,41.118048,-74.05940368364077
Yeshiva Tifereth Moshe Dov Revel Center,(718) 544-5400,https://www.yellowpages.com/forest-hills-ny/mip/yeshiva-tifereth-moshe-dov-revel-center-3694801,Health Clubs,http://www.rabbihorowitz.com/PYes/SchoolDetails.cfm?School_ID=539,7102 113th St,Forest Hills,NY,11375,40.7195942,-73.8448553
Yeshiva Wiznitz,(845) 356-4024,https://www.yellowpages.com/monsey-ny/mip/yeshiva-wiznitz-463052407,Schools,,20 Ashel Ln,Monsey,NY,10952,41.12163029896137,-74.06622163222369
Tshebiner Yeshiva Kohav,(718) 851-5474,https://www.yellowpages.com/brooklyn-ny/mip/tshebiner-yeshiva-kohav-536726266,,,493 Flushing Ave,Brooklyn,NY,11205,40.699193,-73.955184
Gerer Yeshiva Machzikei Hadath,(718) 854-4300,https://www.yellowpages.com/brooklyn-ny/mip/gerer-yeshiva-machzikei-hadath-517156266,"Colleges & Universities,Schools",,5115 Old New Utrecht Rd,Brooklyn,NY,11204,40.62749028571428,-73.98296071428571
Yeshiva Ahavas Israel,(718) 330-0222,https://www.yellowpages.com/brooklyn-ny/mip/yeshiva-ahavas-israel-482917691,"Schools,Religious General Interest Schools",,12 Franklin Ave,Brooklyn,NY,11249,40.698891399999994,-73.95923424237921
Yeshiva Gedolah Rabbinical Institute Of New England Inc,(203) 934-6601,https://www.yellowpages.com/west-haven-ct/mip/yeshiva-gedolah-rabbinical-institute-of-new-england-inc-486159571,,,14 Farwell St,West Haven,CT,6516,41.28729885017884,-72.97920374281841
Yeshiva Darchei Torah,(718) 868-2400,https://www.yellowpages.com/far-rockaway-ny/mip/yeshiva-darchei-torah-10457226,"Public Schools,Schools,Private Schools (K-12)",http://www.darchei.org,1214 Heyson Rd,Far Rockaway,NY,11691,40.5962537,-73.7479826
Yeshiva Mishknois Lavir Yakov Inc,(845) 357-3949,https://www.yellowpages.com/sloatsburg-ny/mip/yeshiva-mishknois-lavir-yakov-inc-472210598,,,225 Orange Tpke,Sloatsburg,NY,10974,41.17377633651409,-74.18895083893463
Bobov Yeshiva,(718) 437-0323,https://www.yellowpages.com/brooklyn-ny/mip/bobov-yeshiva-505120015,Schools,,1149 38th St,Brooklyn,NY,11218,40.6432504,-73.98823372903493
Congregation Yeshiva Mevoi Hatalmud,(718) 384-1043,https://www.yellowpages.com/brooklyn-ny/mip/congregation-yeshiva-mevoi-hatalmud-471935531,"Synagogues,Religious General Interest Schools",,59 Lorimer St,Brooklyn,NY,11206,40.70144605,-73.95245798038167
Yeshiva Shaarei Torah of Rockland,(845) 352-3431,https://www.yellowpages.com/suffern-ny/mip/yeshiva-shaarei-torah-of-rockland-2932272,"Colleges & Universities,Educational Services,Schools",http://www.yst.edu,91 Carlton Rd W,Suffern,NY,10901,41.1151372,-74.1493948
Yeshiva Darche Torah,(516) 812-9051,https://www.yellowpages.com/cedarhurst-ny/mip/yeshiva-darche-torah-504473542,,,416 Central Ave,Cedarhurst,NY,11516,40.6199345,-73.7264084
Yeshiva Orach Chaim,(718) 232-3200,https://www.yellowpages.com/brooklyn-ny/mip/yeshiva-orach-chaim-474141290,Religious General Interest Schools,,1801 55th St,Brooklyn,NY,11204,40.6248221,-73.9840784
Yeshiva Mesivta Wiznitz of USA,(718) 435-7326,https://www.yellowpages.com/brooklyn-ny/mip/yeshiva-mesivta-wiznitz-of-usa-456764742,"Religious Organizations,Community Organizations,Religious General Interest Schools",,1231 51st St,Brooklyn,NY,11219,40.6349126,-73.99444967089906
Yeshiva Of Great Neck - CLOSED,,https://www.yellowpages.com/inwood-ny/mip/yeshiva-of-great-neck-523343216,,,119 Doughty Blvd,Inwood,NY,11096,40.61470884197474,-73.74651280142456
Yeshiva Chasdei Torah,(718) 677-1630,https://www.yellowpages.com/brooklyn-ny/mip/yeshiva-chasdei-torah-459514501,"Schools,Private Schools (K-12)",,54 Avenue O,Brooklyn,NY,11204,40.6100589,-73.98319029513593
Chabad Of Southampton Jewish,(631) 287-2249,https://www.yellowpages.com/southampton-ny/mip/chabad-of-southampton-jewish-458617036,Religious Organizations,http://www.southamptonjewishcenter.com,214 Hill St,Southampton,NY,11968,40.88441675,-72.40074880176553
Congregation Brith Hadoshah - CLOSED,(716) 873-8986,https://www.yellowpages.com/buffalo-ny/mip/congregation-brith-hadoshah-11010280,"Religious Organizations,Synagogues",,2608 Elmwood Ave,Buffalo,NY,14217,42.968347,-78.878851
The Yeshiva Limudel Hashem,(718) 782-0064,https://www.yellowpages.com/brooklyn-ny/mip/the-yeshiva-limudel-hashem-453387218,"Schools,Educational Services",,430 Kent Ave,Brooklyn,NY,11249,40.7095324,-73.9686849
Congregation Shomray Hadath,(607) 732-7410,https://www.yellowpages.com/elmira-ny/mip/congregation-shomray-hadath-541043700,"Religious Organizations,Synagogues,Churches & Places of Worship",https://www.kolamielmira.org,1008 W Water St,Elmira,NY,14905,42.080326,-76.833029
Yeshiva Mesivta Chernobil,(718) 436-5517,https://www.yellowpages.com/brooklyn-ny/mip/yeshiva-mesivta-chernobil-466649551,"Public Schools,Schools,Private Schools (K-12)",,4114 12th Ave,Brooklyn,NY,11219,40.64073757142857,-73.98990142857143
Yeshiva Darkei Emunah,(845) 425-0717,https://www.yellowpages.com/monsey-ny/mip/yeshiva-darkei-emunah-540896481,"Public Schools,Schools,Elementary Schools",,201 Route 306,Monsey,NY,10952,41.118048,-74.05940368364077
Zvi Dov Roth Academy Of Yeshiva Rambam,(718) 677-5100,https://www.yellowpages.com/brooklyn-ny/mip/zvi-dov-roth-academy-of-yeshiva-rambam-287236,"Preschools & Kindergarten,Private Schools (K-12),Religious General Interest Schools",,3300 Kings Hwy,Brooklyn,NY,11234,40.6188317,-73.9418166
Yeshiva Tiferes Elimelech,(718) 438-1779,https://www.yellowpages.com/brooklyn-ny/mip/yeshiva-tiferes-elimelech-1107215,"Public Schools,Schools,Elementary Schools",,1650 56th St,Brooklyn,NY,11204,40.62619850564914,-73.98825239410463
Yeshiva Gedolah Kesser Torah,(845) 406-4308,https://www.yellowpages.com/monsey-ny/mip/yeshiva-gedolah-kesser-torah-526275265,Colleges & Universities,,28 Cedar Ln,Monsey,NY,10952,41.12465637648152,-74.06910148222184
Yeshiva Of Nitra Rabbinical,(718) 384-5460,https://www.yellowpages.com/brooklyn-ny/mip/yeshiva-of-nitra-rabbinical-467641644,"Public Schools,Schools,Private Schools (K-12)",http://www.yeshivaofnitra.org,194 Division Ave,Brooklyn,NY,11211,40.7072776,-73.9598252
Bethlehem Chabad,(518) 866-7658,https://www.yellowpages.com/delmar-ny/mip/bethlehem-chabad-531728558,"Religious Organizations,Synagogues",http://www.bethlehemchabad.com,393 Delaware Ave,Delmar,NY,12054,42.623503,-73.829345
Yeshiva Torah Vodaath & Mesivta,(718) 462-8747,https://www.yellowpages.com/brooklyn-ny/mip/yeshiva-torah-vodaath-mesivta-7136976,"Private Schools (K-12),Schools,Religious General Interest Schools",https://www.torahvodaath.org,425 E 9th St,Brooklyn,NY,11218,40.63812055,-73.96935280023524
Yeshiva Ohel Shaim Inc,(718) 384-2463,https://www.yellowpages.com/brooklyn-ny/mip/yeshiva-ohel-shaim-inc-15039213,Schools,http://www.kaalov.org,167 Penn St,Brooklyn,NY,11211,40.703547099999994,-73.95661124889847
Yeshiva Tashbar,(518) 589-7701,https://www.yellowpages.com/elka-park-ny/mip/yeshiva-tashbar-482956384,Schools,,57 Dale Ln,Elka Park,NY,12427,42.1483,-74.112693
Yeshiva Gedolah Zichron Mayir,(845) 434-5328,https://www.yellowpages.com/mountain-dale-ny/mip/yeshiva-gedolah-zichron-mayir-1265662,"Schools,Private Schools (K-12)",,35 Woodridge Rd,Mountain Dale,NY,12763,41.6895375,-74.5312702
Yeshiva University,(646) 592-4000,https://www.yellowpages.com/new-york-ny/mip/yeshiva-university-465576134,"Colleges & Universities,Schools",http://www.yu.edu,215 Lexington Ave Rm 1501,New York,NY,10016,40.7587979,-73.9623427
Yeshiva Rabbi Chaim Berlin,(718) 377-0777,https://www.yellowpages.com/brooklyn-ny/mip/yeshiva-rabbi-chaim-berlin-533131066,"Colleges & Universities,Schools",,1603 Coney Island Ave,Brooklyn,NY,11230,40.6184633,-73.9636397628757
Yeshiva Mesivta Menachem,(718) 761-4480,https://www.yellowpages.com/staten-island-ny/mip/yeshiva-mesivta-menachem-9620976,Religious Organizations,,289 Harold St,Staten Island,NY,10314,40.6015486,-74.13082367622474
Shaarei Torah Orthodox Congrogation of Syracuse,(315) 446-6194,https://www.yellowpages.com/syracuse-ny/mip/shaarei-torah-orthodox-congrogation-of-syracuse-4128805,"Religious Organizations,Orthodox Churches,Churches & Places of Worship",https://www.stocsyracuse.org/STOCS/Welcome.html,4313 E Genesee St,Syracuse,NY,13214,43.0378579,-76.0777819
Yeshiva Jesode Hatorah-Boro,(718) 851-6462,https://www.yellowpages.com/brooklyn-ny/mip/yeshiva-jesode-hatorah-boro-9262185,"Colleges & Universities,Schools",http://bethchana.org,1350 50th St,Brooklyn,NY,11219,40.63345785,-73.99149052369128
Albert Einstein College of Medicine of Yeshiva Uni,(718) 933-3961,https://www.yellowpages.com/bronx-ny/mip/albert-einstein-college-of-medicine-of-yeshiva-uni-544296826,Colleges & Universities,,360 E 193rd St,Bronx,NY,10458,40.863044099999996,-73.89112623337397
Yeshiva Limudel Hashem,(718) 782-0064,https://www.yellowpages.com/brooklyn-ny/mip/yeshiva-limudel-hashem-546604311,,,8109 Bay Pkwy,Brooklyn,NY,11214,40.60435015,-73.99081808155762
Yeshivas Ohavei Torah,(718) 432-2600,https://www.yellowpages.com/bronx-ny/mip/yeshivas-ohavei-torah-2332229,"Public Schools,Schools,Religious General Interest Schools",https://www.duvys.com/simple/ohaveitorah,450 W 250th St,Bronx,NY,10471,40.8973388,-73.9072576
Yeshiva Beth Joseph Zvi Dushinsky,(718) 431-0635,https://www.yellowpages.com/brooklyn-ny/mip/yeshiva-beth-joseph-zvi-dushinsky-506405667,"Elementary Schools,Schools",,1010 45th St,Brooklyn,NY,11219,40.641034,-73.9962303
Yeshiva Gevoha Lev Simcha,(718) 854-0460,https://www.yellowpages.com/brooklyn-ny/mip/yeshiva-gevoha-lev-simcha-28883181,"Private Schools (K-12),Schools",,5115 Old New Utrecht Rd,Brooklyn,NY,11204,40.62749028571428,-73.98296071428571
Slonim Yeshiva Institute Divrei Shmuel Inc,(845) 352-4971,https://www.yellowpages.com/monsey-ny/mip/slonim-yeshiva-institute-divrei-shmuel-inc-4392147,"Churches & Places of Worship,Synagogues",,2 Phyllis Ter,Monsey,NY,10952,41.116665,-74.066705
Yeshiva of Monroe New Jersey,(732) 806-8887,https://www.yellowpages.com/monroe-township-nj/mip/yeshiva-of-monroe-new-jersey-472935331,"Public Schools,Schools,Elementary Schools",,373 Schoolhouse Rd,Monroe Township,NJ,8831,40.332127,-74.407406
Bobover Yeshiva Of Monsey,(845) 578-1818,https://www.yellowpages.com/spring-valley-ny/mip/bobover-yeshiva-of-monsey-4917498,Schools,,111 Maple Ave,Spring Valley,NY,10977,40.637281900000005,-74.13482955304072
Yeshiva University,(212) 960-5400,https://www.yellowpages.com/bronx-ny/mip/yeshiva-university-496652019,"Colleges & Universities,Schools",http://www.yuhsb.org,111 E 210th St,Bronx,NY,10467,40.8800853,-73.8798439
Yeshiva University,(212) 740-2653,https://www.yellowpages.com/new-york-ny/mip/yeshiva-university-3422750,,,2543 Amsterdam Ave,New York,NY,10033,40.8512543,-73.9283665
Yeshiva Primary & Junior High School,(718) 217-4700,https://www.yellowpages.com/oakland-gardens-ny/mip/yeshiva-primary-junior-high-school-2159310,"Public Schools,Middle Schools,Schools",http://www.yeshivaprimary.com,21010 Union Tpke,Oakland Gardens,NY,11364,40.753991,-73.765966
Yeshiva Machzikei Hadas,(347) 915-2155,https://www.yellowpages.com/brooklyn-ny/mip/yeshiva-machzikei-hadas-472214022,"Public Schools,Schools",,1583 40th St,Brooklyn,NY,11218,40.6362463,-73.9803418
Yeshiva Ketana Of Bensonhurst,(718) 871-6400,https://www.yellowpages.com/brooklyn-ny/mip/yeshiva-ketana-of-bensonhurst-469429989,"Public Schools,Schools,Elementary Schools",,3901 14th Ave,Brooklyn,NY,11218,40.6390325,-73.9841563
Yeshiva Kehilath Yakou,(718) 855-9020,https://www.yellowpages.com/brooklyn-ny/mip/yeshiva-kehilath-yakou-1918940,"Public Schools,Schools",,158 Lee Ave,Brooklyn,NY,11211,40.7029185,-73.9569911
Yeshiva Imrei Chaim Viznitz,(718) 974-8046,https://www.yellowpages.com/brooklyn-ny/mip/yeshiva-imrei-chaim-viznitz-471939792,Schools,,1237 53rd St,Brooklyn,NY,11219,40.633676225806454,-73.99574993548387
Yeshiva Ohr Torah Community School Inc,(212) 376-6800,https://www.yellowpages.com/new-york-ny/mip/yeshiva-ohr-torah-community-school-inc-484180091,Schools,https://www.mdsweb.org/page,310 W 75th St,New York,NY,10023,40.78180953061224,-73.98339493877552
Yeshiva Or Hatorah,(718) 851-7956,https://www.yellowpages.com/brooklyn-ny/mip/yeshiva-or-hatorah-529754662,Colleges & Universities,http://www.ydh.org,5822 11th Ave,Brooklyn,NY,11219,40.632369,-74.0024675
Yeshiva Rlkti School,(718) 464-3823,https://www.yellowpages.com/queens-village-ny/mip/yeshiva-rlkti-school-470695671,Schools,,8011 210th St,Queens Village,NY,11427,40.731116,-73.759745
Yeshiva of the Telshe Alumni,(718) 601-3523,https://www.yellowpages.com/bronx-ny/mip/yeshiva-of-the-telshe-alumni-3722847,"Colleges & Universities,Business & Vocational Schools,Schools",,4904 Independence Ave,Bronx,NY,10471,40.8979815,-73.9108877
Yeshiva Ner Eliezer,(718) 339-9633,https://www.yellowpages.com/brooklyn-ny/mip/yeshiva-ner-eliezer-472964479,Schools,http://www.nereliezer.org,2066 E 9th St,Brooklyn,NY,11223,40.5988218,-73.96252346948376
Yeshiva Beisaleivy Inc,(718) 246-2463,https://www.yellowpages.com/brooklyn-ny/mip/yeshiva-beisaleivy-inc-548507432,Private Schools (K-12),,128 Wallabout St,Brooklyn,NY,11249,40.6991496,-73.9606677
Yeshiva Ahavas Israel,(845) 434-9376,https://www.yellowpages.com/south-fallsburg-ny/mip/yeshiva-ahavas-israel-4940376,Schools,,100 Elm Dr,South Fallsburg,NY,12779,41.717772,-74.637662
Yeshiva Beth Josef Zvi Dushinsky,(718) 388-5660,https://www.yellowpages.com/brooklyn-ny/mip/yeshiva-beth-josef-zvi-dushinsky-1702787,"Public Schools,Schools,Elementary Schools",,135 Ross St Ste A,Brooklyn,NY,11211,40.6501038,-73.9495823
Yeshiva Lptzirim Lptzirim,(718) 438-3061,https://www.yellowpages.com/brooklyn-ny/mip/yeshiva-lptzirim-lptzirim-550698800,,,5120 13th Ave,Brooklyn,NY,11219,40.63363565,-73.99398258077933
Yeshiva of Kasho,(914) 241-2700,https://www.yellowpages.com/bedford-hills-ny/mip/yeshiva-of-kasho-472877234,"Public Schools,Schools,Educational Services",,165 Haines Rd,Bedford Hills,NY,10507,41.236632987164654,-73.71104806980757
Yeshiva Hatorah,(845) 292-8100,https://www.yellowpages.com/parksville-ny/mip/yeshiva-hatorah-480734153,Schools,,410 Revonah Hill Rd,Parksville,NY,12768,41.8554576,-74.7595057
Yeshiva Head Start Program,(718) 963-1212,https://www.yellowpages.com/brooklyn-ny/mip/yeshiva-head-start-program-11544159,"Schools,Child Care",,1402 40th St,Brooklyn,NY,11218,40.638406950000004,-73.98457559186431
Yeshiva Shaare Torah,(718) 677-8100,https://www.yellowpages.com/brooklyn-ny/mip/yeshiva-shaare-torah-456671486,"Public Schools,Schools",http://www.yeshivatshaaretorah.com/mommy-me-program,1020 Ocean Pkwy,Brooklyn,NY,11230,40.623527249999995,-73.97110963516472
Yeshiva Rabbi Samson Raphael,(212) 568-6250,https://www.yellowpages.com/new-york-ny/mip/yeshiva-rabbi-samson-raphael-465547483,Religious Organizations,http://www.yrsrh.org,220 Bennett Ave,New York,NY,10040,40.8570481,-73.9337959583919
Yeshiva Toras Chaim,(845) 352-9126,https://www.yellowpages.com/airmont-ny/mip/yeshiva-toras-chaim-459308796,"Educational Services,Religious General Interest Schools,Schools",,1 Regina Rd,Airmont,NY,10952,41.09364,-74.074195
Yeshiva Gur,(718) 854-4300,https://www.yellowpages.com/brooklyn-ny/mip/yeshiva-gur-7384548,"Colleges & Universities,Schools",,1462 38th St,Brooklyn,NY,11218,40.6386924,-73.98203913540706
Yeshiva Meor Hatalmud,(718) 972-3770,https://www.yellowpages.com/brooklyn-ny/mip/yeshiva-meor-hatalmud-459572149,"Educational Consultants,Educational Services,Private Schools (K-12)",,1368 39th St,Brooklyn,NY,11218,40.63941895,-73.9847850749379
Yeshiva Of Spring Valley,(845) 356-1400,https://www.yellowpages.com/monsey-ny/mip/yeshiva-of-spring-valley-10440885,"Public Schools,Schools",http://yeshivaspringvalley.org,142 Grandview Ave,Monsey,NY,10952,41.118048,-74.05940368364077
Yeshiva Rsr Hirsch School,(212) 568-6250,https://www.yellowpages.com/new-york-ny/mip/yeshiva-rsr-hirsch-school-533173926,"Public Schools,Educational Services,Schools",http://www.yrsrh.org,711 W 190th St,New York,NY,10040,40.8567259,-73.9330572
Yeshiva Ketana Of Queens,(718) 969-1000,https://www.yellowpages.com/flushing-ny/mip/yeshiva-ketana-of-queens-1089541,Religious General Interest Schools,http://www.yeshivaketanaofqueens.com,78-15 Parsons Blvd.,Flushing,NY,11366,40.759686,-73.821164
Yeshiva Steret Tech Girls High School,(718) 382-7002,https://www.yellowpages.com/brooklyn-ny/mip/yeshiva-steret-tech-girls-high-school-3379651,"Schools,Elementary Schools",,1649 E 13th St,Brooklyn,NY,11229,40.609147163265305,-73.96013718367347
Yeshiva Madreigas Haadam,(718) 969-7437,https://www.yellowpages.com/fresh-meadows-ny/mip/yeshiva-madreigas-haadam-9248157,,http://www.ymhad.org,16514 69th Ave,Fresh Meadows,NY,11365,40.7356979,-73.782671
Chabad House Of Delmar,(518) 439-8280,https://www.yellowpages.com/delmar-ny/mip/chabad-house-of-delmar-29188543,"Religious Organizations,Synagogues,Churches & Places of Worship",http://www.bethlehemchabad.com,109 Elsmere Ave,Delmar,NY,12054,42.6152615,-73.82044400000001
Yeshiva Zichron Aryeh,(516) 295-5700,https://www.yellowpages.com/cedarhurst-ny/mip/yeshiva-zichron-aryeh-506155664,Colleges & Universities,http://priority-1.org,26 Columbia Ave,Cedarhurst,NY,11516,40.618858,-73.72381899999999
Yesivath Zichorn Moshe a/k/aYeshiva Gedolah Zichron Moshe,(845) 434-5240,https://www.yellowpages.com/south-fallsburg-ny/mip/yesivath-zichorn-moshe-a-k-ayeshiva-gedolah-zichron-moshe-455765936,,,84 Laurel Ln,South Fallsburg,NY,12779,41.703285,-74.634525
Yeshiva Shaar Ephraim,(845) 426-3110,https://www.yellowpages.com/monsey-ny/mip/yeshiva-shaar-ephraim-2315933,"Public Schools,Schools",http://shaarephraim.org,5 Acer Ct,Monsey,NY,10952,41.11662334693878,-74.06151228571429
Congregation Yeshiva Tomchei,(347) 721-5069,https://www.yellowpages.com/brooklyn-ny/mip/congregation-yeshiva-tomchei-16780522,"Public Schools,Schools",http://yeshivayaakovovenu.org,383 Kingston Ave Suite 323,Brooklyn,NY,11213,40.6501038,-73.9495823
Yeshiva Gedolah,(845) 356-4030,https://www.yellowpages.com/airmont-ny/mip/yeshiva-gedolah-3704399,"Colleges & Universities,Schools",,260 Saddle River Rd,Airmont,NY,10952,41.09696711084038,-74.07166991565123
Yeshiva University - Sy Syms School Of Business,(212) 960-0845,https://www.yellowpages.com/new-york-ny/mip/yeshiva-university-sy-syms-school-of-business-462961590,Business & Vocational Schools,http://www.yu.edu/syms,500 W 185th St,New York,NY,10033,40.8506562,-73.9298679
Yeshivas Tomchei Temimim Lubavitch,(718) 774-4131,https://www.yellowpages.com/brooklyn-ny/mip/yeshivas-tomchei-temimim-lubavitch-470918203,"Colleges & Universities,Religious General Interest Schools",,570 Crown St,Brooklyn,NY,11213,40.66558025,-73.939300375
Yeshiva Darche Eres Inc,(718) 645-1256,https://www.yellowpages.com/brooklyn-ny/mip/yeshiva-darche-eres-inc-547303728,,https://www.schools.nyc.gov/schools/KCBR,325 Avenue Y,Brooklyn,NY,11223,40.5881059,-73.9738547
Yeshiva Emek Hatalmud,(718) 336-2270,https://www.yellowpages.com/brooklyn-ny/mip/yeshiva-emek-hatalmud-459490853,"Elementary Schools,Schools",,1457 E 19th St,Brooklyn,NY,11230,40.61473065,-73.95524948314937
Yeshiva Ketana,(917) 652-4307,https://www.yellowpages.com/brooklyn-ny/mip/yeshiva-ketana-519726218,Schools,,1327 60th St,Brooklyn,NY,11219,40.628535049999996,-73.9976263651115
Ye Shiva of Ocean,(845) 647-2601,https://www.yellowpages.com/greenfield-park-ny/mip/ye-shiva-of-ocean-481591138,Public Schools,https://yeshivaofocean.com,10 Tamarack Rd,Greenfield Park,NY,12435,41.733639,-74.50323
Congregation Yeshiva Bias Yecheskel,(718) 997-8253,https://www.yellowpages.com/forest-hills-ny/mip/congregation-yeshiva-bias-yecheskel-470015637,Religious Organizations,,10230 66th Rd,Forest Hills,NY,11375,40.7195942,-73.8448553
Yeshiva Har Torah,(718) 343-2533,https://www.yellowpages.com/bellerose-ny/mip/yeshiva-har-torah-10846049,"Public Schools,Schools",http://www.hartorah.org,25010 Grand Central Pkwy,Bellerose,NY,11426,40.724269,-73.7151313
Albert Einstein College of Medicine of Yeshiva University,(718) 993-3397,https://www.yellowpages.com/bronx-ny/mip/albert-einstein-college-of-medicine-of-yeshiva-university-450848872,Alcoholism Information & Treatment Centers,,260 E 161st St Fl 9,Bronx,NY,10451,40.8506558,-73.8665241
Yeshiva Shaarei Tzion Preschool,(732) 819-7083,https://www.yellowpages.com/highland-park-nj/mip/yeshiva-shaarei-tzion-preschool-13792947,Religious General Interest Schools,,1131 Raritan Ave,Highland Park,NJ,8904,40.504716,-74.417447
Yeshiva University Furman Dining,(212) 960-5248,https://www.yellowpages.com/new-york-ny/mip/yeshiva-university-furman-dining-455933405,,http://yu.edu,2501 Amsterdam Ave,New York,NY,10033,40.8500377,-73.92858649610834
Yeshiva & Mesivta Arugath,(718) 237-4500,https://www.yellowpages.com/brooklyn-ny/mip/yeshiva-mesivta-arugath-5133670,Schools,,40 Lynch St,Brooklyn,NY,11206,40.70061,-73.9560577
Franciscan Friars,(716) 652-8949,https://www.yellowpages.com/east-aurora-ny/mip/franciscan-friars-3445703,Religious Organizations,,711 Knox Rd,East Aurora,NY,14052,42.7683399,-78.6346567
Yeshiva Darche Eres Inc,(718) 232-0100,https://www.yellowpages.com/brooklyn-ny/mip/yeshiva-darche-eres-inc-516091182,"Public Schools,Schools",,49 Avenue T,Brooklyn,NY,11223,40.598473,-73.98315289817249
Cong Yeshiva Zera Yakov Inc,(845) 678-8640,https://www.yellowpages.com/suffern-ny/mip/cong-yeshiva-zera-yakov-inc-531078233,,,101 Carlton Rd W,Suffern,NY,10901,41.1151372,-74.1493948
Yeshivas Eitz Chaim Inc,(914) 882-8787,https://www.yellowpages.com/spring-valley-ny/mip/yeshivas-eitz-chaim-inc-533549128,,,57 N Cole Ave,Spring Valley,NY,10977,41.114954499999996,-74.05314700000001
Yeshiva Of Far Rockaway,(718) 868-0251,https://www.yellowpages.com/far-rockaway-ny/mip/yeshiva-of-far-rockaway-524956277,"Public Schools,Schools",https://www.yofr.org,1207 Frisco Ave,Far Rockaway,NY,11691,40.6004488,-73.7470013
Yeshiva Gedolah South Monsey,(845) 352-8803,https://www.yellowpages.com/airmont-ny/mip/yeshiva-gedolah-south-monsey-479608927,Special Education,,21 Park Ave,Airmont,NY,10952,41.100835,-74.075235
Yeshiva Ateret Torah,(718) 375-2556,https://www.yellowpages.com/brooklyn-ny/mip/yeshiva-ateret-torah-537648206,Schools,,1627 Saint Marks Ave,Brooklyn,NY,11233,40.6733607,-73.91293397576453
Yeshiva Ohr Torah,(845) 352-0407,https://www.yellowpages.com/monsey-ny/mip/yeshiva-ohr-torah-488805065,"Messianic Places of Worship,Churches & Places of Worship",,21 Suzanne Dr,Monsey,NY,10952,41.11925507720208,-74.06388517017766
Yeshiva Hechal Shemuel Inc,(718) 336-2702,https://www.yellowpages.com/brooklyn-ny/mip/yeshiva-hechal-shemuel-inc-530281433,Private Schools (K-12),,1532 E 10th St,Brooklyn,NY,11230,40.6115403,-73.9639503
Yeshiva Jesoda Hatorah,(718) 384-5530,https://www.yellowpages.com/brooklyn-ny/mip/yeshiva-jesoda-hatorah-465552364,"Public Schools,Schools",http://www.ydh.org,505 Bedford Ave,Brooklyn,NY,11211,40.7061075,-73.963051
Yeshiva Ohr Yisrael,(718) 382-8702,https://www.yellowpages.com/brooklyn-ny/mip/yeshiva-ohr-yisrael-6665788,Colleges & Universities,http://www.ohryisroel.org,2940 Avenue P,Brooklyn,NY,11229,40.6127882,-73.9437553
Yeshivas Novominsk Camp,(845) 292-7961,https://www.yellowpages.com/liberty-ny/mip/yeshivas-novominsk-camp-1405236,Camps-Recreational,,305 Revonah Hill Rd,Liberty,NY,12754,41.82825347031369,-74.7564587406976
Yeshiva Beth Yitchak D'spinka,(845) 436-5060,https://www.yellowpages.com/greenfield-park-ny/mip/yeshiva-beth-yitchak-dspinka-13192157,"Schools,Educational Services",,170 Birchall Rd,Greenfield Park,NY,12435,41.73521854534497,-74.48527454995333
Pulaski Academy & Central School,(315) 298-7378,https://www.yellowpages.com/pulaski-ny/mip/pulaski-academy-central-school-14488240,"Public Schools,Schools,Elementary Schools",http://www.pacs.cnyric.org,4662 Salina St,Pulaski,NY,13142,43.5550475,-76.1259335
Yeshiva Bnos,(718) 310-3331,https://www.yellowpages.com/brooklyn-ny/mip/yeshiva-bnos-516214922,"Public Schools,Schools,Private Schools (K-12)",,101 Spencer St,Brooklyn,NY,11205,40.69559235,-73.95510610769702
Yeshiva Belz,(718) 853-0448,https://www.yellowpages.com/brooklyn-ny/mip/yeshiva-belz-8071237,Colleges & Universities,,1601 42nd St,Brooklyn,NY,11204,40.63501015,-73.98114204999999
Yeshiva Beth Yitzchok,(718) 387-4597,https://www.yellowpages.com/brooklyn-ny/mip/yeshiva-beth-yitzchok-459137921,Schools,,217 Keap St,Brooklyn,NY,11211,40.7057571,-73.95768341566081
Yeshiva Spinka,(718) 851-1600,https://www.yellowpages.com/brooklyn-ny/mip/yeshiva-spinka-462833325,Public Schools,,1460 56th St,Brooklyn,NY,11219,40.62873465,-73.99269897202251
Yeshiva Torah V,(718) 336-5190,https://www.yellowpages.com/brooklyn-ny/mip/yeshiva-torah-v-516996966,Public Schools,,1192 E 31st St,Brooklyn,NY,11210,40.62234644897959,-73.94512504081632
Yeshiva Binat Chaim,(718) 520-7775,https://www.yellowpages.com/forest-hills-ny/mip/yeshiva-binat-chaim-482666669,"Public Schools,Schools",,9603 69th Ave,Forest Hills,NY,11375,40.718094,-73.851416
Yeshiva Gedolah Zichron Mayir,(845) 434-7724,https://www.yellowpages.com/mountain-dale-ny/mip/yeshiva-gedolah-zichron-mayir-462813574,"Private Schools (K-12),Religious General Interest Schools,Schools",,5 Ronald Tawil Way,Mountain Dale,NY,12763,41.6895375,-74.5312702
Yeshivas Maharit,(845) 782-1380,https://www.yellowpages.com/monroe-ny/mip/yeshivas-maharit-472932180,"Religious Organizations,Synagogues,Churches & Places of Worship",http://yeshivasmaharit.org,15 Garfield Rd Unit 101,Monroe,NY,10950,41.3304767,-74.1866348
Biatch Mirima Rabbi,(607) 733-7054,https://www.yellowpages.com/elmira-ny/mip/biatch-mirima-rabbi-6662973,Religious Organizations,,101 Demarest Pkwy,Elmira,NY,14905,42.079688,-76.835323
Wayne Finger Lakes Boces,(585) 495-6560,https://www.yellowpages.com/wyoming-ny/mip/wayne-finger-lakes-boces-536769064,"Public Schools,Schools",,11 Main St,Wyoming,NY,14591,42.828146,-78.08760556388617
Yeshiva Viznitz,(845) 678-8170,https://www.yellowpages.com/monsey-ny/mip/yeshiva-viznitz-16328122,"Public Schools,Schools",,1 School Ter,Monsey,NY,10952,41.125964,-74.069856
Yeshivas Wiznitz,(845) 794-6765,https://www.yellowpages.com/kiamesha-lake-ny/mip/yeshivas-wiznitz-1704434,"Public Schools,Schools",,169 Gibber Rd,Kiamesha Lake,NY,12751,41.695970590418156,-74.65545973919477
Yeshiva Wiznitz,(845) 356-1010,https://www.yellowpages.com/monsey-ny/mip/yeshiva-wiznitz-7662899,"Public Schools,Schools",,15 Elyon Rd,Monsey,NY,10952,41.11541171428571,-74.07082171428571
Tshebiner Yeshiva Kohav Miyaacov of Jerusalem,(718) 851-5474,https://www.yellowpages.com/brooklyn-ny/mip/tshebiner-yeshiva-kohav-miyaacov-of-jerusalem-459234214,"Public Schools,Schools",,171 Hooper St,Brooklyn,NY,11211,40.7046183,-73.95793659457549
Hampton Synagogue,(631) 288-0534,https://www.yellowpages.com/westhampton-beach-ny/mip/hampton-synagogue-7404305,"Religious Organizations,Reform Synagogues,Synagogues",http://www.thehamptonsynagogue.org,154 Sunset Ave,Westhampton Beach,NY,11978,40.81469705,-72.6441869671456
Yeshiva University - Belz School of Jewish Music,(212) 960-5400,https://www.yellowpages.com/new-york-ny/mip/yeshiva-university-belz-school-of-jewish-music-451908235,"Music Schools,Religious General Interest Schools",http://www.yu.edu/belz,500 W 185th St,New York,NY,10033,40.8506562,-73.9298679
Yeshiva Karlin Stolin Inc,(718) 951-0510,https://www.yellowpages.com/brooklyn-ny/mip/yeshiva-karlin-stolin-inc-458555029,Camping Equipment Rental,,2021 53rd St,Brooklyn,NY,11204,40.62308565,-73.97800445
Yeshiva Kehilath Yakov,(718) 855-4019,https://www.yellowpages.com/brooklyn-ny/mip/yeshiva-kehilath-yakov-472888813,"Private Schools (K-12),Educational Services,Schools",,163 Imlay St,Brooklyn,NY,11231,40.679726,-74.01113153061225
Yeshiva Beth Abraham,(718) 871-5842,https://www.yellowpages.com/brooklyn-ny/mip/yeshiva-beth-abraham-11887027,"Public Schools,Schools,Elementary Schools",,1369 51st St,Brooklyn,NY,11219,40.633075918367346,-73.99173763265306
Yeshiva Gedolah Of The Five Towns,(516) 295-8900,https://www.yellowpages.com/woodmere-ny/mip/yeshiva-gedolah-of-the-five-towns-3224608,"Public Schools,Schools,Elementary Schools",http://www.ygft.org,846 W Broadway,Woodmere,NY,11598,40.63260375,-73.715825
Hebron Yeshiva In Jerusalem,(212) 695-2230,https://www.yellowpages.com/new-york-ny/mip/hebron-yeshiva-in-jerusalem-3653263,"Charities,Community Organizations",,1220 Broadway,New York,NY,10001,40.7470338,-73.9882303
Yeshiva Machziki,(845) 436-7429,https://www.yellowpages.com/woodridge-ny/mip/yeshiva-machziki-8906792,,,393 E Pond Rd,Woodridge,NY,12789,41.724369,-74.58742
Yeshiva Darchei Noam,(845) 352-7100,https://www.yellowpages.com/suffern-ny/mip/yeshiva-darchei-noam-986271,"Public Schools,Schools",http://darcheinoam.org,259 Grandview Ave,Suffern,NY,10901,41.1115932,-74.1216851
Yeshivas Hmetzyoonim,(845) 254-4880,https://www.yellowpages.com/fleischmanns-ny/mip/yeshivas-hmetzyoonim-8023401,"Professional Employer Organizations,Business & Trade Organizations",,91 Clear Springs Ln,Fleischmanns,NY,12430,42.1553663,-74.5323753
Yeshiva Rabbi Chaim Berlin Gur Aryeh Institute,(718) 377-5800,https://www.yellowpages.com/brooklyn-ny/mip/yeshiva-rabbi-chaim-berlin-gur-aryeh-institute-451882778,"Clergy,Religious Counseling",,1310 Avenue I,Brooklyn,NY,11230,40.62730983673469,-73.96346226530613
Yeshiva Tiferes Boruch,(908) 753-2609,https://www.yellowpages.com/north-plainfield-nj/mip/yeshiva-tiferes-boruch-16872643,"Executive Suites,Office & Desk Space Rental Service,Office Buildings & Parks",,112 Linden Ave,North Plainfield,NJ,7060,40.61943006333389,-74.43400352183798
Yeshiva Tiferes,(718) 438-1818,https://www.yellowpages.com/brooklyn-ny/mip/yeshiva-tiferes-8803819,Schools,,1010 45th St,Brooklyn,NY,11219,40.641034,-73.9962303
Yeshiva Gedolah Bais Yisroel,(718) 258-7400,https://www.yellowpages.com/brooklyn-ny/mip/yeshiva-gedolah-bais-yisroel-459045463,"Public Schools,Schools",http://www.simchashachaim.com,1097 E 19th St,Brooklyn,NY,11230,40.6239071,-73.95698934210176
Yeshiva Ketane of Ensonhurst,(718) 232-3332,https://www.yellowpages.com/brooklyn-ny/mip/yeshiva-ketane-of-ensonhurst-549944493,,,2169 77th St,Brooklyn,NY,11214,40.607470250000006,-73.98892958067665
New Beth Israel,(315) 425-1400,https://www.yellowpages.com/syracuse-ny/mip/new-beth-israel-7274320,"Religious Organizations,Synagogues,Churches & Places of Worship",http://www.newbethisrael.org,601 Irving Ave,Syracuse,NY,13210,43.04405645,-76.13742861618104
Yeshiva Degel Hatorah,(845) 356-4610,https://www.yellowpages.com/spring-valley-ny/mip/yeshiva-degel-hatorah-5581666,Schools,http://degelhatorah.com,111 Maple Ave,Spring Valley,NY,10977,40.637281900000005,-74.13482955304072
Yeshiva Shaarie Hatzlucha,(718) 438-1401,https://www.yellowpages.com/brooklyn-ny/mip/yeshiva-shaarie-hatzlucha-5607323,Private Schools (K-12),,3905 15th Ave,Brooklyn,NY,11218,40.63766875,-73.98189669160776
Yeshiva Avir Yakov Girls School,(845) 354-5920,https://www.yellowpages.com/spring-valley-ny/mip/yeshiva-avir-yakov-girls-school-455647888,"Schools,Educational Services",,15 Roosevelt Ave,Spring Valley,NY,10977,41.1130231,-74.0437839
Yeshiva Derech Emes,(845) 356-1103,https://www.yellowpages.com/spring-valley-ny/mip/yeshiva-derech-emes-465591957,"Schools,Educational Services",,1 Dr Frank Rd,Spring Valley,NY,10977,41.124251,-74.058071
Yeshiva Heichal Hatorah,(718) 227-5370,https://www.yellowpages.com/staten-island-ny/mip/yeshiva-heichal-hatorah-2588509,"Public Schools,Schools",,3323 Richmond Ave,Staten Island,NY,10312,40.5577256,-74.16876389036257
Prospect Park Yeshiva,(718) 376-4400,https://www.yellowpages.com/brooklyn-ny/mip/prospect-park-yeshiva-23127454,,https://www.bloppy.org,1782 E 17th St,Brooklyn,NY,11229,40.60649935,-73.95624535
Yeshiva Gedola Ohr Yisrael,(718) 382-8702,https://www.yellowpages.com/brooklyn-ny/mip/yeshiva-gedola-ohr-yisrael-481353266,Colleges & Universities,http://ohryisroel.org,2899 Nostrand Ave,Brooklyn,NY,11229,40.613582699999995,-73.94405921024912
Yeshiva Of Spring Valley,(845) 371-0072,https://www.yellowpages.com/monsey-ny/mip/yeshiva-of-spring-valley-6131751,"Public Schools,Educational Services,Preschools & Kindergarten",http://yeshivaspringvalley.org,230 Maple Ave,Monsey,NY,10952,41.1162351655729,-74.06497991708788
Cong Yeshiva Kesser Torah,(845) 678-8395,https://www.yellowpages.com/monsey-ny/mip/cong-yeshiva-kesser-torah-451910264,"Colleges & Universities,Schools",,27 Calvert Dr,Monsey,NY,10952,41.1258195,-74.070567
Yeshiva Mischknois La,(845) 357-0207,https://www.yellowpages.com/hillburn-ny/mip/yeshiva-mischknois-la-470707326,Churches & Places of Worship,,275 Route 17,Hillburn,NY,10931,41.1239845,-74.1693119
Yeshiva Shaarei Tzion Elementary School,(732) 777-0029,https://www.yellowpages.com/piscataway-nj/mip/yeshiva-shaarei-tzion-elementary-school-14013881,"Private Schools (K-12),Elementary Schools",,71 Ethel Rd W,Piscataway,NJ,8854,40.53038262407291,-74.42893745343326
Ytc Yeshiva,(845) 459-6300,https://www.yellowpages.com/airmont-ny/mip/ytc-yeshiva-468248189,"Colleges & Universities,Schools",,1 Regina Rd,Airmont,NY,10952,41.09364,-74.074195
Yeshiva Nachlas Yakov,(718) 218-6014,https://www.yellowpages.com/brooklyn-ny/mip/yeshiva-nachlas-yakov-13003727,Schools,,185 Wilson St,Brooklyn,NY,11211,40.7067842,-73.9605115
Yeshiva Of South Shore,(516) 374-7363,https://www.yellowpages.com/hewlett-ny/mip/yeshiva-of-south-shore-10825167,"Private Schools (K-12),Educational Services,Schools",http://yoss.org,1170 William St,Hewlett,NY,11557,40.64150442857143,-73.70714657142858
Yeshivas Bais Medrash of M,(732) 521-4119,https://www.yellowpages.com/monroe-township-nj/mip/yeshivas-bais-medrash-of-m-456820333,Public Schools,,377 Schoolhouse Rd,Monroe Township,NJ,8831,40.33277433423827,-74.40594904309583
Yeshiva Viznitz Students,(845) 794-9408,https://www.yellowpages.com/kiamesha-lake-ny/mip/yeshiva-viznitz-students-469336441,"Public Schools,Educational Services,Schools",,168 Gibber Rd,Kiamesha Lake,NY,12751,41.69597197676543,-74.6554678638346
Stein Yeshiva Of Lincoln Park,(914) 965-7082,https://www.yellowpages.com/yonkers-ny/mip/stein-yeshiva-of-lincoln-park-742884,"Public Schools,Schools",http://www.steinyeshiva.org,287 Central Park Ave,Yonkers,NY,10704,40.91579165892152,-73.87315177389635
Yeshiva Toras Emmes Kamenitz,(718) 258-5748,https://www.yellowpages.com/brooklyn-ny/mip/yeshiva-toras-emmes-kamenitz-3244123,"Public Schools,Schools",,1480 E 24th St,Brooklyn,NY,11210,40.6144704,-73.9506526028915
Kalish Yeshiva,(718) 438-1722,https://www.yellowpages.com/brooklyn-ny/mip/kalish-yeshiva-469828113,"Elementary Schools,Religious General Interest Schools,Schools",http://www.yu.edu,1020 56th St,Brooklyn,NY,11219,40.63457715,-74.0024022
Yeshiva Shaare Torah Inc,(718) 645-6676,https://www.yellowpages.com/brooklyn-ny/mip/yeshiva-shaare-torah-inc-5114660,"Public Schools,Schools,Elementary Schools",http://shaaretorahbhs.tripod.com,1202 Avenue P,Brooklyn,NY,11229,40.60984855,-73.96107119474932
Bobov Yeshiva of Monsey,(845) 578-1779,https://www.yellowpages.com/nanuet-ny/mip/bobov-yeshiva-of-monsey-503578428,Public Schools,,207 Maplewood Gdns,Nanuet,NY,10954,41.10318233307463,-74.03741554417545
Yeshiva Ohr Torah,(845) 352-0407,https://www.yellowpages.com/monsey-ny/mip/yeshiva-ohr-torah-2673403,"Religious Organizations,Churches & Places of Worship",,360 Route 306,Monsey,NY,10952,41.118048,-74.05940368364077
Yeshiva Gedolah,(732) 765-9126,https://www.yellowpages.com/matawan-nj/mip/yeshiva-gedolah-537400461,Public Schools,,200 State Route 34,Matawan,NJ,7747,40.41483,-74.2295891
Yeshiva Kinyan Torah,(845) 356-5090,https://www.yellowpages.com/monsey-ny/mip/yeshiva-kinyan-torah-542507430,"Religious Organizations,Churches & Places of Worship,Congregational Churches",,6 Melnick Dr,Monsey,NY,10952,41.118048,-74.05940368364077
Yeshiva Tiferes Menachem,(718) 333-1176,https://www.yellowpages.com/brooklyn-ny/mip/yeshiva-tiferes-menachem-4229600,"Public Schools,Schools,Religious General Interest Schools",,4823 Beach 48th St,Brooklyn,NY,11224,40.577372350000005,-74.0116279736786
Yeshiva Gedolah Ohr Yisroel - CLOSED,,https://www.yellowpages.com/brooklyn-ny/mip/yeshiva-gedolah-ohr-yisroel-9005762,Schools,,930 45th St,Brooklyn,NY,11219,40.64196935,-73.99794841975405
Yeshiva Gedola Of Carteret,(732) 969-2497,https://www.yellowpages.com/carteret-nj/mip/yeshiva-gedola-of-carteret-13671489,"Private Schools (K-12),Educational Services,Schools",http://ygoc.org,42 Noe St,Carteret,NJ,7008,40.580647871337156,-74.22050660455514
Yeshiva Karlin Stolin,(718) 232-7800,https://www.yellowpages.com/brooklyn-ny/mip/yeshiva-karlin-stolin-10374101,"Colleges & Universities,Religious General Interest Schools,Schools",https://dryveup.com/stolin,1818 54th St,Brooklyn,NY,11204,40.624892599999995,-73.98335492966154
Jewish Centre Of The Hamptons,(631) 324-9858,https://www.yellowpages.com/east-hampton-ny/mip/jewish-centre-of-the-hamptons-10657543,"Religious Organizations,Synagogues,Churches & Places of Worship",http://jcoh.org,East Hampton 11937,East Hampton,NY,11937,40.9650535,-72.1935105
Yeshiva Shaarei Yosher Office,(718) 854-3532,https://www.yellowpages.com/brooklyn-ny/mip/yeshiva-shaarei-yosher-office-458612053,Schools,,1630 41st St,Brooklyn,NY,11218,40.639505,-73.987455
Yeshiva Beis Meir,(718) 633-5952,https://www.yellowpages.com/brooklyn-ny/mip/yeshiva-beis-meir-5576184,"Public Schools,Schools",http://shaarhatorah.edu,3810 14th Ave,Brooklyn,NY,11218,40.63977455102041,-73.98372718367347
Yeshiva University - Rabbi Isaac Elchanan Seminary,(646) 592-4455,https://www.yellowpages.com/new-york-ny/mip/yeshiva-university-rabbi-isaac-elchanan-seminary-498786699,"Colleges & Universities,Religious General Interest Schools",http://www.yu.edu/riets,515 W 185th St,New York,NY,10033,40.85102352941176,-73.93017341176471
Yeshiva Beis Levy,(718) 625-4555,https://www.yellowpages.com/brooklyn-ny/mip/yeshiva-beis-levy-8647834,Religious General Interest Schools,,118 Wallabout St,Brooklyn,NY,11249,40.69937165,-73.95801602539677
Yeshiva University,(212) 420-6280,https://www.yellowpages.com/new-york-ny/mip/yeshiva-university-462463622,"Colleges & Universities,Religious General Interest Schools,Schools",http://www.yu.edu,2495 Amsterdam Ave,New York,NY,10033,40.849562899999995,-73.92926487413541
Congregation Beth Emeth,(518) 436-9761,https://www.yellowpages.com/albany-ny/mip/congregation-beth-emeth-1709715,"Religious Organizations,Reform Synagogues,Synagogues",http://www.bethemethalbany.org,100 Academy Rd,Albany,NY,12208,42.64691305,-73.78389972205943
Cong Yeshiva Avir Yakov,(845) 362-6600,https://www.yellowpages.com/spring-valley-ny/mip/cong-yeshiva-avir-yakov-481343647,"Public Schools,Schools,Educational Services",,105 Clinton Ln,Spring Valley,NY,10977,41.141486,-74.032734
Yeshiva Mesivta Menachem,(718) 698-2657,https://www.yellowpages.com/staten-island-ny/mip/yeshiva-mesivta-menachem-470678403,Religious Organizations,,22 Oakville St,Staten Island,NY,10314,40.598688499999994,-74.13182219745309
Yeshiva Chofetz Chaim,(845) 352-8448,https://www.yellowpages.com/spring-valley-ny/mip/yeshiva-chofetz-chaim-460373522,"Public Schools,Religious General Interest Schools,Schools",http://www.chofetzchaim.com,50 Kiryas Radin Dr,Spring Valley,NY,10977,41.14670323573576,-74.06075063629594
Yeshiva Farm Settlement,(718) 387-0422,https://www.yellowpages.com/brooklyn-ny/mip/yeshiva-farm-settlement-5172234,"Public Schools,Schools",http://www.greif.com,194 Division Ave,Brooklyn,NY,11211,40.7072776,-73.9598252
Yeshiva Yagdil Torah,(718) 435-9364,https://www.yellowpages.com/brooklyn-ny/mip/yeshiva-yagdil-torah-3314886,Religious Organizations,,1801 51st St,Brooklyn,NY,11204,40.62723685,-73.98181856803242
Bethel Head Start Program - CLOSED,(716) 878-0226,https://www.yellowpages.com/buffalo-ny/mip/bethel-head-start-program-4935133,"Public Schools,Schools,Day Care Centers & Nurseries",,1525 Michigan Ave,Buffalo,NY,14209,42.91486265182634,-78.86221332195727
Yeshiva Ohr Yitzhak,(718) 258-4919,https://www.yellowpages.com/brooklyn-ny/mip/yeshiva-ohr-yitzhak-455808462,"Associations,Business & Trade Organizations",,1214 E 15th St Ste 2,Brooklyn,NY,11230,40.6501038,-73.9495823
Yeshivas Ner Dovid Inc,(845) 694-9160,https://www.yellowpages.com/monsey-ny/mip/yeshivas-ner-dovid-inc-486801760,,,1 Meadowbrook Ln,Monsey,NY,10952,41.119136,-74.074619
Yeshiva Avir Yakov Inc,(845) 354-9657,https://www.yellowpages.com/spring-valley-ny/mip/yeshiva-avir-yakov-inc-17098050,Colleges & Universities,,100 Roosevelt Ave,Spring Valley,NY,10977,41.1057866,-74.0406511
Fax Yeshiva,(718) 633-2811,https://www.yellowpages.com/brooklyn-ny/mip/fax-yeshiva-544011243,,,1623 44th St,Brooklyn,NY,11204,40.63361825,-73.98171607393539
Yeshiva K'tana,(718) 375-4321,https://www.yellowpages.com/brooklyn-ny/mip/yeshiva-ktana-462884545,Public Schools,,1791 Ocean Pkwy,Brooklyn,NY,11223,40.6051683,-73.9663588
Yeshivas Ohr Reuven-Beth Medrash Hagadol,(845) 362-8362,https://www.yellowpages.com/suffern-ny/mip/yeshivas-ohr-reuven-beth-medrash-hagadol-12589919,"Public Schools,Schools",http://www.ohrreuven.com,259 Grandview Ave,Suffern,NY,10901,41.1115932,-74.1216851
Yeshiva Torah Temimah,(718) 853-8500,https://www.yellowpages.com/brooklyn-ny/mip/yeshiva-torah-temimah-583900,"Synagogues,Schools,Churches & Places of Worship",http://ytt.edu,555 Ocean Pkwy,Brooklyn,NY,11218,40.6347222,-73.9719444
Yeshiva Rtzahd,(718) 444-6208,https://www.yellowpages.com/brooklyn-ny/mip/yeshiva-rtzahd-6946330,"Public Schools,Schools",,8700 Avenue K,Brooklyn,NY,11236,40.635337,-73.904077
Yeshiva Letzirim Inc,(845) 434-5490,https://www.yellowpages.com/woodbourne-ny/mip/yeshiva-letzirim-inc-502827751,Religious Organizations,,184 Hasbrouck Dr,Woodbourne,NY,12788,41.7682144,-74.61160826153846
United Lubavitcher Yeshiva,(718) 774-3430,https://www.yellowpages.com/brooklyn-ny/mip/united-lubavitcher-yeshiva-493164787,Public Schools,https://yttl.org,1414 President St,Brooklyn,NY,11213,40.6674432,-73.9421582
Yeshiva Boyan,(718) 633-4761,https://www.yellowpages.com/brooklyn-ny/mip/yeshiva-boyan-472872709,Schools,,4405 14th Ave,Brooklyn,NY,11219,40.63617895,-73.98696196883623
Yeshiva Imrei Chaim Viznitz,(718) 236-6606,https://www.yellowpages.com/brooklyn-ny/mip/yeshiva-imrei-chaim-viznitz-544370744,,,1824 53rd St,Brooklyn,NY,11204,40.62540345,-73.98267883321046
Yeshiva Tiferes Zvi of Jerusalem,(718) 871-2126,https://www.yellowpages.com/brooklyn-ny/mip/yeshiva-tiferes-zvi-of-jerusalem-564886,"Public Schools,Schools,Educational Services",,1372 47th St,Brooklyn,NY,11219,40.63492895,-73.98929472817429
Yeshiva Ohr Hatalmud-Englewood,(201) 816-1800,https://www.yellowpages.com/englewood-nj/mip/yeshiva-ohr-hatalmud-englewood-688000,Charities,http://www.yeshivaohrsimcha.org,101 W Forest Ave,Englewood,NJ,7631,40.887474,-73.984023
Yeshiva Gedolah Imrei Yosef D'spinka,(718) 851-8721,https://www.yellowpages.com/brooklyn-ny/mip/yeshiva-gedolah-imrei-yosef-dspinka-472119460,"Colleges & Universities,Schools",,1466 56th St,Brooklyn,NY,11219,40.62861815,-73.99252369999999
Sharei Yeshivas,(718) 852-6513,https://www.yellowpages.com/brooklyn-ny/mip/sharei-yeshivas-542186906,Schools,,777 Kent Ave,Brooklyn,NY,11205,40.6977127,-73.95970470198247
Yeshiva Gedola Lubavitch,(201) 766-1537,https://www.yellowpages.com/west-new-york-nj/mip/yeshiva-gedola-lubavitch-462841141,Private Schools (K-12),,5308 Palisade Ave,West New York,NJ,7093,40.78374655102041,-74.01725469387756
Saint Maximilian Kolbe,(585) 599-4833,https://www.yellowpages.com/corfu-ny/mip/saint-maximilian-kolbe-485955521,Religious Organizations,,18 W Main St,Corfu,NY,14036,42.959380499999995,-78.40773260323382
Yeshiva Tzoin Yosef,(845) 371-1220,https://www.yellowpages.com/spring-valley-ny/mip/yeshiva-tzoin-yosef-5529623,"Public Schools,Schools",,4 Widman Ct,Spring Valley,NY,10977,41.1130231,-74.0437839
Yeshiva Beth Mikroh,(845) 425-4880,https://www.yellowpages.com/monsey-ny/mip/yeshiva-beth-mikroh-7874325,"Public Schools,Schools",,221 Viola Rd,Monsey,NY,10952,41.1361395724694,-74.07698151716602
Yeshiva Bais Binyomin,(845) 356-0547,https://www.yellowpages.com/monsey-ny/mip/yeshiva-bais-binyomin-530435805,,,51 Carlton Rd,Monsey,NY,10952,41.12343952796845,-74.07882430769935
Slabodka Yeshiva,(718) 633-2513,https://www.yellowpages.com/brooklyn-ny/mip/slabodka-yeshiva-2447722,"Elementary Schools,Schools",,169 Parkville Ave,Brooklyn,NY,11230,40.6304594,-73.97271947105784
Yeshiva Gedola Be'er Hatorah,(718) 782-3928,https://www.yellowpages.com/brooklyn-ny/mip/yeshiva-gedola-beer-hatorah-19627714,Religious General Interest Schools,,161 Harrison Ave,Brooklyn,NY,11206,40.70210235,-73.94891915
Yeshiva Sharei Hayosher School,(718) 376-4555,https://www.yellowpages.com/brooklyn-ny/mip/yeshiva-sharei-hayosher-school-10239898,"Public Schools,Schools",,1334 Ocean Pkwy,Brooklyn,NY,11230,40.616103550000005,-73.9695518
Yeshiva University,(212) 960-5400,https://www.yellowpages.com/new-york-ny/mip/yeshiva-university-544142762,"Colleges & Universities,Schools",http://www.newschool.edu/connect,55 5th Ave Fl 6,New York,NY,10003,40.7127281,-74.0060152
Yeshiva Simchas Chaim,(718) 942-4666,https://www.yellowpages.com/brooklyn-ny/mip/yeshiva-simchas-chaim-479519429,"Public Schools,Schools,Elementary Schools",,2066 E 9th St,Brooklyn,NY,11223,40.5988218,-73.96252346948376
Ma'ayanot Yeshiva High School for Girls,(201) 833-4307,https://www.yellowpages.com/teaneck-nj/mip/maayanot-yeshiva-high-school-for-girls-5906014,Religious General Interest Schools,http://www.maayanot.org,1650 Palisade Ave Ste 1,Teaneck,NJ,7666,40.910966099999996,-73.99447595956315
Yeshiva of Staten Island,(845) 626-7256,https://www.yellowpages.com/kerhonkson-ny/mip/yeshiva-of-staten-island-17226740,"Colleges & Universities,Schools",,323 Granite Rd,Kerhonkson,NY,12446,41.7537255,-74.2746031
Yeshiva Derech Hatorah High,(347) 492-6611,https://www.yellowpages.com/brooklyn-ny/mip/yeshiva-derech-hatorah-high-481307542,Schools,https://www.ydh.org,321 Avenue N,Brooklyn,NY,11230,40.614587650000004,-73.97120045
Yeshiva Sharei Hatzlucha,(718) 331-1430,https://www.yellowpages.com/brooklyn-ny/mip/yeshiva-sharei-hatzlucha-469811837,Schools,,5309 18th Ave,Brooklyn,NY,11204,40.62564285,-73.98325499504504
Congregation Yeshiva-Greater,(845) 362-8700,https://www.yellowpages.com/spring-valley-ny/mip/congregation-yeshiva-greater-538412195,Schools,,667 New Hempstead Rd,Spring Valley,NY,10977,41.150604,-74.048327
Yeshiva Tiferes Moshe,(845) 262-1280,https://www.yellowpages.com/monsey-ny/mip/yeshiva-tiferes-moshe-472483254,"Colleges & Universities,Schools,Religious General Interest Schools",http://www.yhbtm.org,38 College Rd,Monsey,NY,10952,41.118048,-74.05940368364077
Yeshivas Ahavas Isreal,(845) 292-4876,https://www.yellowpages.com/liberty-ny/mip/yeshivas-ahavas-isreal-15906395,"Tutoring,Educational Services,Educational Consultants",,73 Old Monticello Rd,Liberty,NY,12754,41.77879202336175,-74.72385584616234
Yeshiva Sholom Shachna,(718) 253-1664,https://www.yellowpages.com/brooklyn-ny/mip/yeshiva-sholom-shachna-484976925,Colleges & Universities,http://yeshivasholomshachna.com,401 Elmwood Ave,Brooklyn,NY,11230,40.6275447,-73.97334925108652
Yeshiva Of Great Mons,(845) 262-1992,https://www.yellowpages.com/monsey-ny/mip/yeshiva-of-great-mons-514379719,Schools,,133 Route 59,Monsey,NY,10952,41.118048,-74.05940368364077
Yeshiva Medrash L'man Achai,(718) 225-4003,https://www.yellowpages.com/oakland-gardens-ny/mip/yeshiva-medrash-lman-achai-9417935,Schools,,6745 215th St,Oakland Gardens,NY,11364,40.7493501,-73.7633501
Yeshiva Machzikei Hadas,(518) 226-0358,https://www.yellowpages.com/saratoga-springs-ny/mip/yeshiva-machzikei-hadas-2929860,Schools,,1 Veterans Way,Saratoga Springs,NY,12866,43.0917769,-73.76351327587315
Yeshiva D'monsey Rabbinical College,(845) 352-5852,https://www.yellowpages.com/monsey-ny/mip/yeshiva-dmonsey-rabbinical-college-22807397,"Colleges & Universities,Educational Services,Schools",,2 Roman Blvd,Monsey,NY,10952,41.1147443,-74.0652322
Yeshiva Shearith Hapletah - CLOSED,,https://www.yellowpages.com/brooklyn-ny/mip/yeshiva-shearith-hapletah-465605697,"Elementary Schools,Schools",,712 Bedford Ave,Brooklyn,NY,11206,40.7174046,-73.9570004
Yeshiva Chasan Sofer,(718) 853-8100,https://www.yellowpages.com/brooklyn-ny/mip/yeshiva-chasan-sofer-534499532,"Public Schools,Schools",,1705 49th St,Brooklyn,NY,11204,40.6293845,-73.982946
Yeshiva University,(212) 960-5400,https://www.yellowpages.com/bronx-ny/mip/yeshiva-university-481985987,Colleges & Universities,http://www.yuhsb.org,1300 Morris Park Ave,Bronx,NY,10461,40.851003,-73.844241
Yeshiva Ohr Shraga,(347) 350-5979,https://www.yellowpages.com/brooklyn-ny/mip/yeshiva-ohr-shraga-469165516,Schools,,1321 41st St,Brooklyn,NY,11218,40.6393233,-73.9866910607337
Yeshiva Vayuel Moshe O'satmar,(718) 438-7062,https://www.yellowpages.com/brooklyn-ny/mip/yeshiva-vayuel-moshe-osatmar-10169751,"Elementary Schools,Religious General Interest Schools,Schools",,1010 45th St,Brooklyn,NY,11219,40.641034,-73.9962303
Tshebiner Yeshiva Kohav,(718) 851-5474,https://www.yellowpages.com/brooklyn-ny/mip/tshebiner-yeshiva-kohav-462729370,Religious General Interest Schools,,1434 57th St,Brooklyn,NY,11219,40.62846545,-73.99369475346509
Yeshiva Shaarei Tzion Elem,(732) 235-0042,https://www.yellowpages.com/piscataway-nj/mip/yeshiva-shaarei-tzion-elem-6112276,Public Schools,http://www.ystnj.org,51 Park Ave,Piscataway,NJ,8854,40.526827795918365,-74.48960181632654
Yeshiva Ateret Torah,(718) 375-2556,https://www.yellowpages.com/brooklyn-ny/mip/yeshiva-ateret-torah-497835463,"Public Schools,Schools",,1627 E 10th St,Brooklyn,NY,11223,40.6091323,-73.96298334767468
Yeshiva Yesode Hatorah,(718) 388-0023,https://www.yellowpages.com/brooklyn-ny/mip/yeshiva-yesode-hatorah-11276164,Schools,,195 Wilson St,Brooklyn,NY,11211,40.7070387,-73.96017725
Yeshiva University - Mazer School of Talmudic Studies,(212) 960-5400,https://www.yellowpages.com/new-york-ny/mip/yeshiva-university-mazer-school-of-talmudic-studies-463051498,Religious General Interest Schools,http://www.yu.edu/academics/torah-studies/myp,515 W 185th St Suite 632,New York,NY,10033,40.7587979,-73.9623427
Yeshiva Ohr Yisroel,(845) 292-8129,https://www.yellowpages.com/parksville-ny/mip/yeshiva-ohr-yisroel-11407855,"Public Schools,Schools,Elementary Schools",,249 Anderson Rd,Parksville,NY,12768,41.8554576,-74.7595057
Yeshiva Of Staten Island,(212) 267-2955,https://www.yellowpages.com/new-york-ny/mip/yeshiva-of-staten-island-4895736,Schools,,145 E Broadway,New York,NY,10002,40.71376955,-73.99110906715407
Yeshiva Shar Yisochar,(718) 261-3349,https://www.yellowpages.com/rego-park-ny/mip/yeshiva-shar-yisochar-479552249,,,6620 Thornton Pl,Rego Park,NY,11374,40.72341042857143,-73.85810014285714
Yeshiva University High School for Boys,(212) 960-5337,https://www.yellowpages.com/new-york-ny/mip/yeshiva-university-high-school-for-boys-473124615,"Religious General Interest Schools,High Schools",http://www.yuhsb.org,2540 Amsterdam AVE,New York,NY,10033,40.8517491,-73.9286950471292
Yeshivas Ahavas Israel Boys,(718) 388-0848,https://www.yellowpages.com/brooklyn-ny/mip/yeshivas-ahavas-israel-boys-460223979,"Public Schools,Religious General Interest Schools,Schools",,2 Lee Ave,Brooklyn,NY,11211,40.7028415,-73.9569086
Yeshiva Beth Joseph Tzwi Camp - CLOSED,(845) 794-0619,https://www.yellowpages.com/monticello-ny/mip/yeshiva-beth-joseph-tzwi-camp-477214398,Private Schools (K-12),,104 Waverly Ave,Monticello,NY,12701,41.64514594213403,-74.67361246409502
Yeshiva Shaare Rahamim,(718) 951-9444,https://www.yellowpages.com/brooklyn-ny/mip/yeshiva-shaare-rahamim-29307651,Religious General Interest Schools,,1244 E 7th St,Brooklyn,NY,11230,40.6205736,-73.96866275
Gedolah Yeshiva,(201) 833-7601,https://www.yellowpages.com/teaneck-nj/mip/gedolah-yeshiva-510500474,"Colleges & Universities,Schools",,126 W Englewood Ave,Teaneck,NJ,7666,40.900323666666665,-74.00438366666667
Yeshiva Tehila L'dovid,(718) 645-4667,https://www.yellowpages.com/brooklyn-ny/mip/yeshiva-tehila-ldovid-453420274,Schools,,1714 E 17th St,Brooklyn,NY,11229,40.60801765,-73.95650790449933
Yeshiva Beth David,(845) 352-3100,https://www.yellowpages.com/monsey-ny/mip/yeshiva-beth-david-17153650,Schools,http://yeshivanet.com,22 W Maple Ave,Monsey,NY,10952,41.115528,-74.073239
Yeshiva Gedolah Tefereth Shmuel,(718) 633-0349,https://www.yellowpages.com/brooklyn-ny/mip/yeshiva-gedolah-tefereth-shmuel-543029281,Schools,,1437 54th St,Brooklyn,NY,11219,40.63046715,-73.99165017413833
Yeshiva Machzikei,(347) 442-5772,https://www.yellowpages.com/brooklyn-ny/mip/yeshiva-machzikei-470039702,"Public Schools,Schools",,4001 16th Ave,Brooklyn,NY,11218,40.63581515,-73.98016446887618
Yeshiva Mesivta Arugath Habosem,(347) 689-9752,https://www.yellowpages.com/brooklyn-ny/mip/yeshiva-mesivta-arugath-habosem-12430273,Schools,,287 Heyward St,Brooklyn,NY,11206,40.701946,-73.955724
Yeshiva University,(212) 960-5400,https://www.yellowpages.com/new-york-ny/mip/yeshiva-university-535073013,,https://www.yu.edu,1300 Park Ave,New York,NY,10029,40.734298,-73.68322673188987
Yeshiva Ohel Torah,(718) 234-3066,https://www.yellowpages.com/brooklyn-ny/mip/yeshiva-ohel-torah-475215528,Schools,,6301 17th ave,brooklyn,NY,11204,40.621467,-73.991332
Yeshivas Wiznitz Beth Israel,(718) 972-7555,https://www.yellowpages.com/brooklyn-ny/mip/yeshivas-wiznitz-beth-israel-6086985,Social Service Organizations,,5316 New Utrecht Ave,Brooklyn,NY,11219,40.6328778,-73.99552639814814
The Hampton Synag - CLOSED,,https://www.yellowpages.com/westhampton-beach-ny/mip/the-hampton-synag-1530920,"Religious Organizations,Synagogues",,13 Brook Rd,Westhampton Beach,NY,11978,40.81453335,-72.64524973321629
Yeshiva Mestiva Chernobil,(718) 436-4422,https://www.yellowpages.com/brooklyn-ny/mip/yeshiva-mestiva-chernobil-475954259,"Public Schools,Schools",http://www.yumuseum.org,1217 41st St,Brooklyn,NY,11218,40.6407005,-73.98898879896716
Yeshiva Karlin Stolin,(718) 305-5992,https://www.yellowpages.com/brooklyn-ny/mip/yeshiva-karlin-stolin-469775519,"Elementary Schools,Schools",,1552 39th St,Brooklyn,NY,11218,40.63698445,-73.98069686908134
Yeshiva Beth Joseph Zvi Sushinsky,(718) 435-2144,https://www.yellowpages.com/brooklyn-ny/mip/yeshiva-beth-joseph-zvi-sushinsky-519731237,Schools,,1462 38th St,Brooklyn,NY,11218,40.6386924,-73.98203913540706
Yeshiva Ketana Of Manhattan,(212) 769-1790,https://www.yellowpages.com/new-york-ny/mip/yeshiva-ketana-of-manhattan-2930163,"Private Schools (K-12),Preschools & Kindergarten,Schools",http://www.ykom.net,346 W 89th St,New York,NY,10024,40.7913948,-73.9785759
Yeshiva,(718) 793-8500,https://www.yellowpages.com/brooklyn-ny/mip/yeshiva-8905524,Public Schools,http://www.ycqweb.com,86 Hewes St,Brooklyn,NY,11249,40.70173765,-73.96015166569119
Yeshiva Mesivta Menachem,(914) 274-8777,https://www.yellowpages.com/hastings-on-hudson-ny/mip/yeshiva-mesivta-menachem-544387653,Churches & Places of Worship,,49 Jackson Ave,Hastings On Hudson,NY,10706,40.98670512772818,-73.86076856440866
Yeshiva Derech Hatorah,(718) 258-4441,https://www.yellowpages.com/brooklyn-ny/mip/yeshiva-derech-hatorah-2949537,Educational Services,http://www.ydh.org,2810 Nostrand Ave,Brooklyn,NY,11229,40.615341,-73.94514552047005
Yeshiva Ch San Sofer,(718) 236-1171,https://www.yellowpages.com/brooklyn-ny/mip/yeshiva-ch-san-sofer-1613226,Internet Products & Services,,1876 50th St,Brooklyn,NY,11204,40.626813902439025,-73.98018797560977
Yeshiva Ohr Naftuli,(845) 784-4020,https://www.yellowpages.com/new-windsor-ny/mip/yeshiva-ohr-naftuli-495389773,"Social Service Organizations,Community Organizations,Human Services Organizations",http://www.ohrnaftoli.org,701 Blooming Grove Tpke,New Windsor,NY,12553,41.457371,-74.047769
Yeshiva & Mesifta Maharyats Margareten,(718) 851-3552,https://www.yellowpages.com/brooklyn-ny/mip/yeshiva-mesifta-maharyats-margareten-11704023,Religious General Interest Schools,,5402 14th Ave,Brooklyn,NY,11219,40.6309796,-73.99319133555858
Yeshiva Letzirim Inc,(845) 292-0026,https://www.yellowpages.com/liberty-ny/mip/yeshiva-letzirim-inc-496815648,,,85 Ferndale Loomis Rd,Liberty,NY,12754,41.778535,-74.758554
Yeshiva Bnos Ahavas Israel Inc,(718) 486-8937,https://www.yellowpages.com/brooklyn-ny/mip/yeshiva-bnos-ahavas-israel-inc-460223972,Schools,,2 Lee Ave,Brooklyn,NY,11211,40.7028415,-73.9569086
Yeshiva Ohr Moleh Koson,(718) 972-4078,https://www.yellowpages.com/brooklyn-ny/mip/yeshiva-ohr-moleh-koson-2019072,"Public Schools,Schools",,1383 44th St,Brooklyn,NY,11219,40.6367895,-73.9872928
Yeshiva Farms Settlement Schools,(914) 666-8402,https://www.yellowpages.com/mount-kisco-ny/mip/yeshiva-farms-settlement-schools-6760537,"Public Schools,Schools",,Pinesbridge Rd,Mount Kisco,NY,10549,41.2042616,-73.7270761
Yeshiva Ohel Shmuel,(718) 218-8211,https://www.yellowpages.com/brooklyn-ny/mip/yeshiva-ohel-shmuel-459271889,Schools,,207 Ross St Ste A,Brooklyn,NY,11211,40.6501038,-73.9495823
Yeshiva University,(646) 833-7451,https://www.yellowpages.com/new-york-ny/mip/yeshiva-university-535600498,Colleges & Universities,http://www.yumuseum.org,15 E 11th St,New York,NY,10003,40.733932,-73.99419546769447
Shatnes Of Yeshiva Mikdash Melech,(718) 421-6795,https://www.yellowpages.com/brooklyn-ny/mip/shatnes-of-yeshiva-mikdash-melech-512560745,"Churches & Places of Worship,Catholic Churches",,1586 Coney Island Ave,Brooklyn,NY,11230,40.6187465,-73.9643925
Congregation Yeshiva Beis Chaya Mushka,(718) 756-0770,https://www.yellowpages.com/brooklyn-ny/mip/congregation-yeshiva-beis-chaya-mushka-479789937,Religious General Interest Schools,,1505 Carroll St,Brooklyn,NY,11213,40.666532764705885,-73.93734864705883
Yeshiva Mishknols Lavir Yakov Inc,(845) 357-3949,https://www.yellowpages.com/hillburn-ny/mip/yeshiva-mishknols-lavir-yakov-inc-3458720,,,225 Route 17,Hillburn,NY,10931,41.1239845,-74.1693119
Yeshiva University,(212) 960-5400,https://www.yellowpages.com/new-york-ny/mip/yeshiva-university-462463629,"Colleges & Universities,Schools",http://www.yu.edu,245 Lexington Ave,New York,NY,10016,40.74666525,-73.97921637928869
Yeshiva Gedolah Of Midwood,(718) 853-2400,https://www.yellowpages.com/brooklyn-ny/mip/yeshiva-gedolah-of-midwood-462984993,"Public Schools,Schools",,592 E 3rd St,Brooklyn,NY,11218,40.63778995,-73.9766018
Yeshivas Ohr Hachaim,(718) 544-9462,https://www.yellowpages.com/flushing-ny/mip/yeshivas-ohr-hachaim-4796749,"Synagogues,Churches & Places of Worship",http://www.touro.edu,14161 71st Ave,Flushing,NY,11367,40.7654301,-73.8174291
Yeshivas Be'er Yitzchok,(908) 354-6057,https://www.yellowpages.com/elizabeth-nj/mip/yeshivas-beer-yitzchok-19624563,Colleges & Universities,http://www.elizabethkollel.org,1391 North Ave,Elizabeth,NJ,7208,40.6639916,-74.2107006
Mirrer Yeshiva Educational Institute,(718) 645-0536,https://www.yellowpages.com/brooklyn-ny/mip/mirrer-yeshiva-educational-institute-16103580,"Colleges & Universities,Religious General Interest Schools,Industrial, Technical & Trade Schools",,1791 Ocean Pkwy # 5,Brooklyn,NY,11223,40.6501038,-73.9495823
Yeshiva Toldos Yakov Yosef,(845) 354-0270,https://www.yellowpages.com/spring-valley-ny/mip/yeshiva-toldos-yakov-yosef-10281857,"Messianic Synagogues,Synagogues,Churches & Places of Worship",,38 Washington Ave,Spring Valley,NY,10977,41.1379461,-74.0307242
Yeshiva Marbeatze Torah,(718) 336-7887,https://www.yellowpages.com/brooklyn-ny/mip/yeshiva-marbeatze-torah-15467032,,,1719 Avenue P,Brooklyn,NY,11229,40.610099,-73.961373
Yeshiva Darchei Menachen - CLOSED,,https://www.yellowpages.com/brooklyn-ny/mip/yeshiva-darchei-menachen-18347798,"Elementary Schools,Schools",,825 Eastern Pkwy,Brooklyn,NY,11213,40.66977715,-73.94091492420273
Salem Hyde Pre-K,(315) 435-4242,https://www.yellowpages.com/syracuse-ny/mip/salem-hyde-pre-k-462799306,Public Schools,,450 Durston Ave,Syracuse,NY,13203,43.07043055,-76.12687328491333
Yeshiva Ohr Eliezer,(631) 654-9284,https://www.yellowpages.com/brooklyn-ny/mip/yeshiva-ohr-eliezer-28964641,Schools,,2115 Benson Ave,Brooklyn,NY,11214,40.6014692,-73.997080399824
Yeshiva Kesser Torah,(718) 263-9698,https://www.yellowpages.com/flushing-ny/mip/yeshiva-kesser-torah-469323430,Clergy,http://yeshivakessertorah.org,14736 69th Rd,Flushing,NY,11367,40.7654301,-73.8174291
Yeshiva Michas Yehuda Stitchin,(888) 793-7448,https://www.yellowpages.com/brooklyn-ny/mip/yeshiva-michas-yehuda-stitchin-503210330,Business Coaches & Consultants,,3720 14th Ave,Brooklyn,NY,11218,40.6401802,-73.9833724
Yeshiva Of Kings Bay,(718) 646-8500,https://www.yellowpages.com/brooklyn-ny/mip/yeshiva-of-kings-bay-7108948,Camps-Recreational,,2611 Avenue Z,Brooklyn,NY,11235,40.5893765,-73.94314544402306
Yeshiva Beth Moshe,(718) 972-6111,https://www.yellowpages.com/brooklyn-ny/mip/yeshiva-beth-moshe-13757970,Colleges & Universities,,1021 42nd St,Brooklyn,NY,11219,40.64272845,-73.99391013379551
Yeshiva Farm Settlement,(914) 241-1093,https://www.yellowpages.com/mount-kisco-ny/mip/yeshiva-farm-settlement-3181896,"Colleges & Universities,Schools",,20 Tora Rd,Mount Kisco,NY,10549,41.2042616,-73.7270761
Yeshiva Chasan Sofer,(718) 853-8100,https://www.yellowpages.com/brooklyn-ny/mip/yeshiva-chasan-sofer-4924415,Nursery Schools,,1705 E 49th St,Brooklyn,NY,11234,40.620147522222226,-73.92791067777777
Yeshiva Nesivos Chaim,(718) 633-4760,https://www.yellowpages.com/brooklyn-ny/mip/yeshiva-nesivos-chaim-11979445,Public Schools,,215 Avenue F,Brooklyn,NY,11218,40.6336172,-73.97593264412744
Beth El Congregation,(315) 265-7025,https://www.yellowpages.com/potsdam-ny/mip/beth-el-congregation-1324258,"Religious Organizations,Synagogues,Churches & Places of Worship",http://bethelcongregation.org,81 Market St,Potsdam,NY,13676,44.673654,-74.986975
Gerer Yeshiva,(718) 854-8777,https://www.yellowpages.com/brooklyn-ny/mip/gerer-yeshiva-15212662,"Public Schools,Schools,Religious General Interest Schools",,5407 16th Ave,Brooklyn,NY,11204,40.62788965,-73.98837181142858
Joseph S. Gruss Yeshiva High School,(718) 375-0900,https://www.yellowpages.com/brooklyn-ny/mip/joseph-s-gruss-yeshiva-high-school-482825179,Religious General Interest Schools,,1904 Avenue N,Brooklyn,NY,11230,40.615975999999996,-73.9555741632653
Yeshiva Gedolah Ohr Yisroel,(718) 963-4200,https://www.yellowpages.com/brooklyn-ny/mip/yeshiva-gedolah-ohr-yisroel-5030709,"Public Schools,Schools",,281 Rutledge St,Brooklyn,NY,11211,40.7047497,-73.95325103679573
Yeshiva Farm Settlement,(718) 963-1800,https://www.yellowpages.com/brooklyn-ny/mip/yeshiva-farm-settlement-4249649,Schools,,163 Rodney St,Brooklyn,NY,11211,40.70517375,-73.96012832233268
Yeshiva Yesodei Hachaim,(718) 336-5647,https://www.yellowpages.com/brooklyn-ny/mip/yeshiva-yesodei-hachaim-481591161,Religious General Interest Schools,,1326 Ocean Pkwy,Brooklyn,NY,11230,40.616237100000006,-73.96958005239779
Yeshiva Gedolah Zichron Leyma,(908) 258-7396,https://www.yellowpages.com/union-nj/mip/yeshiva-gedolah-zichron-leyma-524593851,"Colleges & Universities,Schools",http://www.yzl.edu,2031 Vauxhall Rd,Union,NJ,7083,40.699017554932254,-74.26845174435766
Yeshiva University,(718) 430-3552,https://www.yellowpages.com/bronx-ny/mip/yeshiva-university-13259273,Apartments,http://yu.edu,1935 Eastchester Rd,Bronx,NY,10461,40.851831857142855,-73.84403095918368
Yeshiva Bonim Lamokom,(718) 693-9032,https://www.yellowpages.com/brooklyn-ny/mip/yeshiva-bonim-lamokom-7127198,"Private Schools (K-12),Schools",http://bonimlamokomauction.org,425 E 9th St,Brooklyn,NY,11218,40.63812055,-73.96935280023524
Yeshiva Ohr Chaim,(718) 658-7066,https://www.yellowpages.com/richmond-hill-ny/mip/yeshiva-ohr-chaim-820998,"Public Schools,Elementary Schools,Schools",,8606 135th St,Richmond Hill,NY,11418,40.6994253,-73.8309672
Yeshiva Jesode Hatorah,(718) 388-1139,https://www.yellowpages.com/brooklyn-ny/mip/yeshiva-jesode-hatorah-472858692,"Public Schools,Schools,Elementary Schools",,563 Bedford Ave,Brooklyn,NY,11211,40.7041916,-73.9609452
Yeshiva Gedola Rabbincal,(203) 777-7343,https://www.yellowpages.com/new-haven-ct/mip/yeshiva-gedola-rabbincal-470405351,,,367 Ellsworth Ave,New Haven,CT,6511,41.32009647560064,-72.94653565644272
Congregation Camp Divrie Yoel Of Yeshiva Gedola D'satmar,(347) 423-9176,https://www.yellowpages.com/brooklyn-ny/mip/congregation-camp-divrie-yoel-of-yeshiva-gedola-dsatmar-485098278,Public Schools,,191 Rodney St,Brooklyn,NY,11211,40.70576575,-73.95921096836734
Yeshiva Beth Jpseph Zvi,(718) 522-2811,https://www.yellowpages.com/brooklyn-ny/mip/yeshiva-beth-jpseph-zvi-472921497,"Public Schools,Schools",,910 Bedford Ave,Brooklyn,NY,11205,40.693436649999995,-73.95624451565449
Yeshiva Bais Sholom,(718) 495-2106,https://www.yellowpages.com/brooklyn-ny/mip/yeshiva-bais-sholom-457194218,"Synagogues,Religious General Interest Schools",,9102 Church Ave,Brooklyn,NY,11236,40.6532388,-73.9187388957265
Yeshiva Bobov Bnei Zion,(845) 425-4041,https://www.yellowpages.com/monsey-ny/mip/yeshiva-bobov-bnei-zion-459579680,Religious Organizations,http://www.boboveryeshivabneizion.com,88 Grove St,Monsey,NY,10952,41.1103381482668,-74.07727642241103
Yeshiva Beth Abraham-Jersalem,(212) 819-0355,https://www.yellowpages.com/new-york-ny/mip/yeshiva-beth-abraham-jersalem-3567243,Schools,,73 W 47th St,New York,NY,10036,40.758021400000004,-73.9813011
Congregation Yeshiva Of Greater Monsey Inc,(845) 362-7700,https://www.yellowpages.com/suffern-ny/mip/congregation-yeshiva-of-greater-monsey-inc-504548350,"Public Schools,Schools",,70 Wesley Chapel Rd,Suffern,NY,10901,41.1151372,-74.1493948
Yeshiva Rambam,(718) 338-6918,https://www.yellowpages.com/brooklyn-ny/mip/yeshiva-rambam-475878147,Schools,http://yeshivarambam.org,60 W End Ave,Brooklyn,NY,11235,40.5801893,-73.9538790860121
Yeshiva Ohel Shaim,(718) 386-2663,https://www.yellowpages.com/brooklyn-ny/mip/yeshiva-ohel-shaim-28766547,,,188 Hewes St,Brooklyn,NY,11211,40.7037891,-73.95687718476378
Yeshiva Tiferes Elimelech,(718) 854-3062,https://www.yellowpages.com/brooklyn-ny/mip/yeshiva-tiferes-elimelech-12337374,"Public Schools,Schools,Private Schools (K-12)",,4407 12th Ave,Brooklyn,NY,11219,40.638792499999994,-73.99141359407716
Skver Yeshiva Brooklyn,(718) 853-4349,https://www.yellowpages.com/brooklyn-ny/mip/skver-yeshiva-brooklyn-465541809,Religious General Interest Schools,,1321 42nd St,Brooklyn,NY,11219,40.63869459183673,-73.98744724489795
Yeshiva Of Flatbush Inc,(718) 421-1425,https://www.yellowpages.com/brooklyn-ny/mip/yeshiva-of-flatbush-inc-7182411,"Public Schools,Government Offices,Schools",http://www.flatbush.org/contact.aspx,919 E 10th St,Brooklyn,NY,11230,40.6267076,-73.9663998
Yeshiva Toras Halacha,(516) 668-1908,https://www.yellowpages.com/flushing-ny/mip/yeshiva-toras-halacha-545095020,,https://www.yeshivatorashalacha.org,7003 147th St,Flushing,NY,11367,40.758867,-73.816864
Yeshiva Mercaz Hatorah of Belle Harbor,(718) 474-3064,https://www.yellowpages.com/rockaway-park-ny/mip/yeshiva-mercaz-hatorah-of-belle-harbor-10995198,"Public Schools,Schools",http://www.ymhbh.com,12405 Rockaway Beach Blvd,Rockaway Park,NY,11694,40.5791448,-73.8392792
